ID,OrganizationName,OrganizationType,Address,Address2,City,State,ZipCode,OrgPhone,PCUseRestrictions,HardwarePublic,AssistiveTechnology,InternetUpload,InternetDownload,VolunteersUsed,VolunteersUsedHow,VolunteersWantedHow,Longitude,Latitude,PublicWiFiDetail,NearestParking,NearestParkingDetail,HandicapAccessDetail,PublicTransportationDetail,TimeAllowedPerUser,TimeAllowedPerUserDetail,RoomList,Hours,WEBSITE,HOURS,APPOINTMENT,INTERNET,WIFI,TRAINING
1000,Test PCC -- Prod,WorkNet Chicago,123 W. East St.,  ,Chicago,IL,60601,333-333-3333,Must be a Chicago resident.,2,2 workstations have ZoomText,1.5Mbps,6Mbps,yes,"Register participants, assign computers, monitor lab",to teach class,-87.6202514,41.6707595,wifi no,Paid,nearest parking -- paid,Handicap -- no,trans -- no,Timed,timed,  Room 1620  Room 3056,"Sunday 6am-10am 

Monday 6am-10pm 

Tuesday 6am-10pm 

Wednesday 6am-10pm 

Thursday 4am-10am 

Friday 6am-10pm 

Saturday 6am-10pm ",,,,,,
1001,Harold Washington College,City Colleges of Chicago,30 E. Lake Street,  ,Chicago,IL,60601,312-553-5600,"No food or drinks, no chewing gum.",160,"Jaws, ZoomText, marked w/ signage. Dragon Speak available.",59,119.31,no,  ,Provide technology support to users and equipment maintenance,-87.6264001,41.8857699,"Public Wifi, signal strenght great.",Paid,"Self Park $14, first come first serve","Doors, restrooms, resource areas",CTA; very close,unlimited,No Time limit.,"First Floor Lobby  2nd Floor  Room 404  Floors 4, 7, 10 and Basement","Monday 6pm-9pm 

Tuesday 6pm-9pm 

Wednesday 6pm-9pm 

Thursday 6pm-9pm 

Friday 10am-7pm 

Saturday 10am-3pm ",,,,,,
1002,Harry S. Truman College,City Colleges of Chicago,1145 W. Wilson,  ,Chicago,IL,60640,773-907-4000,Deepfreeze - NO thawspace,40,Jaws,57Mbps,86Mbps,no,  ,  ,-87.6598137,41.9652352,"WEP, Open",Free,"Campus Parking Garage, Free","Ramps, doors, 2 ADA complient desks.","Redline, 300 feet - bus stop within walking",unlimited,Unilimited for now. May change based on usage,  ,"Monday TBD 

Tuesday TBD 

Wednesday TBD 

Thursday TBD 

Friday TBD 

Saturday TBD ",,,,,,
1003,Lakeview Learning Center,City Colleges of Chicago,3310 N. Clark Street,  ,Chicago,IL,60657,  ,  ,  ,  ,  ,  ,  ,  ,  ,-87.6523554,41.9420291,  ,  ,  ,  ,  ,  ,  ,  ,  ,,,,,,
1004,Kennedy-King College,City Colleges of Chicago,6301 S. Halsted Street,  ,Chicago,IL,60621,773-602-5363,"PCs will be monitored with netsupport software. Deepfreeze will be installed on the machines. Library- No Cell Phone Use, No Food of Drink",48,"Jaws, ZoomText, Dragon Naturally Speaking",n/a,n/a,no,  ,  ,-87.644754,41.7797854,  ,Free,School Parking Lot,"Elevators, Handicap doors, Accessible computers.",Green Line Metra through campus,unlimited,  ,V110  Library  Building W Lobby,"Monday 8:30am- 8:00pm 

Tuesday 8:30am- 8:00pm 

Wednesday 8:30am- 8:00pm 

Thursday 8:30am- 8:00pm 

Friday 8:30am- 4:00pm 

Saturday 9:00am- 1:00pm ",,,,,,
1005,Dawson Technical Institute,City Colleges of Chicago,3901 S. State Street,  ,Chicago,IL,60609,773-602-5363,n/a,0,n/a,70+ mbps,60+ mbps,no,  ,  ,-87.6262275,41.8235415,  ,Free,Parking in rear for staff/students,"Push button doors, and restrooms.","CTA, bus stop on each side of the street",  ,N/A,  ,  ,,,,,,
1006,Malcolm X College,City Colleges of Chicago,1900 W. Van Buren,  ,Chicago,IL,60612,312-850-7000,PC's will not save data afer reboot,62,zoom text and Jaws,42.89,56.55,no,  ,to monitor the PC's 2 people,-87.6742179,41.8762613,"WPA Security, Signal strenght great",Free,across the street from school - parking lot,Auto doors & elavators,CTA train and bus Train 1 block away bus in front of building,Timed,Friday 12 4 and saturday 9 2,  ,"Friday 12-4 

Saturday 9-2 ",,,,,,
1007,Westside Learning Center,City Colleges of Chicago,4624 W. Madison Street,  ,Chicago,IL,60644,312-850-7420,"Will not save data upon reboot, no food or drinks in lab",60,zoom text,21.82 Mbps,99.42 Mbps,no,  ,two,-87.7403736,41.8805961,wpa,Free,next to college,doors,bus in front of building,Timed,Friday 9-12 Saturday 9-12,  ,"Friday 9-12 

Saturday 9-12 ",,,,,,
1008,Olive-Harvey College,City Colleges of Chicago,10001 S. Woodlawn Ave.,  ,Chicago,IL,60628,773-291-6200,Open access. No installation or deletion of any program,96,Magic on limited machines,64Mbps,64Mbps,no,  ,AS lab aide's to manage the lab in terms of people visiting.,-87.5903737,41.7141033,"Free, signal strenght great",Free,"Student parking (permit), faculty, and diability","Push button doors, elevators.","CTA bus, drops off in front",unlimited,TBD,  ,"Monday 2pm-8pm 

Tuesday 2pm-8pm 

Wednesday 2pm-8pm 

Thursday 2pm-8pm 

Friday 2pm-8pm 

Saturday 9am-1pm ",,,,,,
1009,South Chicago Learning Center,City Colleges of Chicago,3055 E. 92nd Street,  ,Chicago,IL,60617,773-291-6770,Kids below a certain age will need to have a parent with them.,57,TDB,22.75 Mbps,92.66 Mbps,yes,Community Members,"Communication, assisting people.",-87.549122,41.727986,802.11n,Paid,Street Parking,Ramp,2 blocks,unlimited,Depends on need and demand which will be evaluated.,Room 015  Room 106,"Monday TDB 

Tuesday TDB 

Wednesday TDB 

Thursday TDB 

Friday TDB 

Saturday TDB ",,,,,,
1010,Richard J. Daley College,City Colleges of Chicago,7500 S. Pulaski Ave.,  ,Chicago,IL,60652,773-838-7500,- No downloading of music or installation of p2p (peer-to-peer) applications or any software is allowed. No cell phone usage or permitte No food or drink is permitted. No children are permitted. Noise levels and talking should be kept to a minimum. ,90,"Jaws, ZoomText",57.79,68.74,no,  ,  ,-87.7238989,41.7561784,"Free wi-fi, great signal strength",Free,Student parking lot,"Push button doors, ramps, and restrooms","CTA, buses drop off at front entrance",unlimited,TBD,  ,"Monday 8am-10pm 

Tuesday 8am-10pm 

Wednesday 8am-10pm 

Thursday 8am-10pm 

Friday 8am-5pm 

Saturday 9am-1pm ",,,,,,
1011,Arturo Velasquez Institute (AVI),City Colleges of Chicago,2800 S. Western Avenue,  ,Chicago,IL,60608,773-838-4500,â€¢No downloading of music or installation of p2p (peer-to-peer) applications â€¢No cell phone usage or permitted â€¢No food or drink is permitted. â€¢No children are permitted. â€¢Noise levels and talking should be kept to a minimum. User must follow CCC Computing Usage Policy ,100,  ,64.78 Mbps,76.48 Mbps ,no,  ,  ,-87.6860628,41.8410806,CCC free public access. No access code required ,Free,Building has parking at either end of building ,Door are handicapped accessible ,Western Avenue bus,Timed,Classes are held in labs and library and given priority. ,1st Floor  2nd Floor,"Monday 8am-10pm 

Tuesday 8am-10pm 

Wednesday 8am10pm 

Thursday 8am10pm ",,,,,,
1012,Wilbur Wright College,City Colleges of Chicago,4300 N. Narragansett,  ,Chicago,IL,60634,773-481-8752,No food or drinks allowed. Headphones need to be used and volume needs to be low. No use of P2P services or file sharing. Lab policies are posted throughout resource center.,226,Jaws,44Mbps,71Mbps,no,  ,  ,-87.788326,41.95882,"WPA, CCCFREE (free access throught), strenght great",Free,1500 parking spaces,"Doors, ramps, and restrooms.","CTA, bus stops inside lot",unlimited,No restricitions,CafÃ©/Learning Resource Center Loby  Community Lab  Library  Open Lab,"Monday 8am-9:00pm 

Tuesday 8am-9:30pm 

Wednesday 8am-9:30pm 

Thursday 8am-9:30pm 

Friday 8am-4pm 

Saturday 8am-4pm ",,,,,,
1013,Humbolt Park Vocational Center,City Colleges of Chicago,1645 N. California Ave.,  ,Chicago,IL,60647,773-489-8989,  ,25,Jaws,48.80 Mbps,83.07 Mbps,no,  ,  ,-87.6969972,41.9116305,Securtiy and Strength,Free,100,Doors,CTA,unlimited,Open Lab,  ,"Monday 8am-10pm 

Tuesday 8am-10pm 

Wednesday 8am-10pm 

Thursday 8am-10pm 

Friday 8am-7pm 

Saturday 8am-2pm ",,,,,,
1014,Albany Park,Chicago Public Library,5150 N. Kimball Avenue,  ,Chicago,IL,60625,  ,  ,  ,  ,  ,  ,  ,  ,  ,-87.7137659,41.9755903,  ,  ,  ,  ,  ,  ,  ,  ,  ,,,,,,
1015,Altgeld,Chicago Public Library,901 E. 133rd Place,  ,Chicago,IL,60827,  ,  ,  ,  ,  ,  ,  ,  ,  ,-87.5997964,41.6537527,  ,  ,  ,  ,  ,  ,  ,  ,  ,,,,,,
1016,Archer Heights,Chicago Public Library,5055 S. Archer Avenue,  ,Chicago,IL,60632,  ,  ,  ,  ,  ,  ,  ,  ,  ,-87.7264961,41.8012284,  ,  ,  ,  ,  ,  ,  ,  ,  ,,,,,,
1017,Austin,Chicago Public Library,5615 W. Race Avenue,  ,Chicago,IL,60644,  ,  ,  ,  ,  ,  ,  ,  ,  ,-87.766925,41.889135,  ,  ,  ,  ,  ,  ,  ,  ,  ,,,,,,
1018,Austin-Irving,Chicago Public Library,6100 W. Irving Park Road,  ,Chicago,IL,60634,  ,  ,  ,  ,  ,  ,  ,  ,  ,-87.7797481,41.9531653,  ,  ,  ,  ,  ,  ,  ,  ,  ,,,,,,
1019,Avalon,Chicago Public Library,8148 S. Stony Island Avenue,  ,Chicago,IL,60617,  ,  ,  ,  ,  ,  ,  ,  ,  ,-87.58621,41.746338,  ,  ,  ,  ,  ,  ,  ,  ,  ,,,,,,
1020,Back of the Yards,Chicago Public Library,4650 S. Damen Avenue,  ,Chicago,IL,60609,  ,  ,  ,  ,  ,  ,  ,  ,  ,-87.674969,41.8093211,  ,  ,  ,  ,  ,  ,  ,  ,  ,,,,,,
1021,Beverly,Chicago Public Library,2121 W. 95th Street,  ,Chicago,IL,60643,  ,  ,  ,  ,  ,  ,  ,  ,  ,-87.6756324,41.7209571,  ,  ,  ,  ,  ,  ,  ,  ,  ,,,,,,
1022,Bezazian,Chicago Public Library,1226 W. Ainslie Street,  ,Chicago,IL,60640,  ,  ,  ,  ,  ,  ,  ,  ,  ,-87.6605604,41.9715737,  ,  ,  ,  ,  ,  ,  ,  ,  ,,,,,,
1023,Blackstone,Chicago Public Library,4904 S. Lake Park Avenue,  ,Chicago,IL,60615,  ,  ,  ,  ,  ,  ,  ,  ,  ,-87.590282,41.805836,  ,  ,  ,  ,  ,  ,  ,  ,  ,,,,,,
1024,Brainerd,Chicago Public Library,1350 W. 89th Street,  ,Chicago,IL,60620,  ,  ,  ,  ,  ,  ,  ,  ,  ,-87.6578692,41.7323691,  ,  ,  ,  ,  ,  ,  ,  ,  ,,,,,,
1025,Brighton Park,Chicago Public Library,4314 S. Archer Avenue,  ,Chicago,IL,60632,  ,  ,  ,  ,  ,  ,  ,  ,  ,-87.7031172,41.8149561,  ,  ,  ,  ,  ,  ,  ,  ,  ,,,,,,
1026,Bucktown-Wicker Park,Chicago Public Library,1701 N. Milwaukee Avenue,  ,Chicago,IL,60647,  ,  ,  ,  ,  ,  ,  ,  ,  ,-87.6803364,41.9122696,  ,  ,  ,  ,  ,  ,  ,  ,  ,,,,,,
1027,Budlong Woods,Chicago Public Library,5630 N. Lincoln Avenue,  ,Chicago,IL,60659,  ,  ,  ,  ,  ,  ,  ,  ,  ,-87.6961283,41.9837065,  ,  ,  ,  ,  ,  ,  ,  ,  ,,,,,,
1028,Canaryville,Chicago Public Library,642 W. 43rd Street,  ,Chicago,IL,60609,  ,  ,  ,  ,  ,  ,  ,  ,  ,-87.6425503,41.8162511,  ,  ,  ,  ,  ,  ,  ,  ,  ,,,,,,
1029,Chicago Bee,Chicago Public Library,3647 S. State Street,  ,Chicago,IL,60609,  ,  ,  ,  ,  ,  ,  ,  ,  ,-87.6263139,41.8279571,  ,  ,  ,  ,  ,  ,  ,  ,  ,,,,,,
1030,Chicago Lawn,Chicago Public Library,6120 S. Kedzie Avenue,  ,Chicago,IL,60629,  ,  ,  ,  ,  ,  ,  ,  ,  ,-87.7033504,41.7818994,  ,  ,  ,  ,  ,  ,  ,  ,  ,,,,,,
1031,Chinatown,Chicago Public Library,2353 S. Wentworth Avenue,  ,Chicago,IL,60616,  ,  ,  ,  ,  ,  ,  ,  ,  ,-87.6316702,41.848912,  ,  ,  ,  ,  ,  ,  ,  ,  ,,,,,,
1032,Clearing,Chicago Public Library,6423 W. 63rd Place,  ,Chicago,IL,60638,  ,  ,  ,  ,  ,  ,  ,  ,  ,-87.7821117,41.7767735,  ,  ,  ,  ,  ,  ,  ,  ,  ,,,,,,
1033,Coleman,Chicago Public Library,731 E. 63rd Street,  ,Chicago,IL,60637,  ,  ,  ,  ,  ,  ,  ,  ,  ,-87.6071658,41.7803843,  ,  ,  ,  ,  ,  ,  ,  ,  ,,,,,,
1034,Daley,Chicago Public Library,3400 S. Halsted Street,  ,Chicago,IL,60608,  ,  ,  ,  ,  ,  ,  ,  ,  ,-87.6462758,41.8325692,  ,  ,  ,  ,  ,  ,  ,  ,  ,,,,,,
1035,Douglass,Chicago Public Library,3353 W. 13th Street,  ,Chicago,IL,60623,  ,  ,  ,  ,  ,  ,  ,  ,  ,-87.7096392,41.8645217,  ,  ,  ,  ,  ,  ,  ,  ,  ,,,,,,
1036,Dunning,Chicago Public Library,7455 W. Cornelia Avenue,  ,Chicago,IL,60634,  ,  ,  ,  ,  ,  ,  ,  ,  ,-87.8138528,41.9431863,  ,  ,  ,  ,  ,  ,  ,  ,  ,,,,,,
1037,Edgebrook,Chicago Public Library,5331 W. Devon Avenue,  ,Chicago,IL,60646,  ,  ,  ,  ,  ,  ,  ,  ,  ,-87.762198,41.996987,  ,  ,  ,  ,  ,  ,  ,  ,  ,,,,,,
1038,Edgewater,Chicago Public Library,1210 W. Elmdale Avenue,  ,Chicago,IL,60660,  ,  ,  ,  ,  ,  ,  ,  ,  ,-87.6607446,41.9909254,  ,  ,  ,  ,  ,  ,  ,  ,  ,,,,,,
1039,Gage Park,Chicago Public Library,2807 W. 55th Street,  ,Chicago,IL,60632,  ,  ,  ,  ,  ,  ,  ,  ,  ,-87.694126,41.793424,  ,  ,  ,  ,  ,  ,  ,  ,  ,,,,,,
1040,Galewood-Mont Clare,Chicago Public Library,6969 W. Grand Avenue,  ,Chicago,IL,60707,  ,  ,  ,  ,  ,  ,  ,  ,  ,-87.800483,41.923189,  ,  ,  ,  ,  ,  ,  ,  ,  ,,,,,,
1041,Garfield Ridge,Chicago Public Library,6348 S. Archer Avenue,  ,Chicago,IL,60638,  ,  ,  ,  ,  ,  ,  ,  ,  ,-87.7803109,41.7928604,  ,  ,  ,  ,  ,  ,  ,  ,  ,,,,,,
1042,Greater Grand Crossing,Chicago Public Library,1000 E. 73rd Street,  ,Chicago,IL,60619,  ,  ,  ,  ,  ,  ,  ,  ,  ,-87.6005806,41.7623041,  ,  ,  ,  ,  ,  ,  ,  ,  ,,,,,,
1043,Hall,Chicago Public Library,4801 S. Michigan Avenue,  ,Chicago,IL,60615,  ,  ,  ,  ,  ,  ,  ,  ,  ,-87.62275,41.8074463,  ,  ,  ,  ,  ,  ,  ,  ,  ,,,,,,
1044,Harold Washington-HWLC,Chicago Public Library,400 S. State Street,  ,Chicago,IL,60605,  ,  ,  ,  ,  ,  ,  ,  ,  ,-87.6282728,41.8762316,  ,  ,  ,  ,  ,  ,  ,  ,  ,,,,,,
1045,Hegewisch,Chicago Public Library,3048 E. 130th Street,  ,Chicago,IL,60633,  ,  ,  ,  ,  ,  ,  ,  ,  ,-87.5488831,41.659276,  ,  ,  ,  ,  ,  ,  ,  ,  ,,,,,,
1046,Humboldt Park,Chicago Public Library,1605 N. Troy Street,  ,Chicago,IL,60647,  ,  ,  ,  ,  ,  ,  ,  ,  ,-87.7056411,41.910242,  ,  ,  ,  ,  ,  ,  ,  ,  ,,,,,,
1047,Independence,Chicago Public Library,3548 W. Irving Park Road,  ,Chicago,IL,60618,  ,  ,  ,  ,  ,  ,  ,  ,  ,-87.7174661,41.9539814,  ,  ,  ,  ,  ,  ,  ,  ,  ,,,,,,
1048,Jefferson Park,Chicago Public Library,5363 W. Lawrence Avenue,  ,Chicago,IL,60630,  ,  ,  ,  ,  ,  ,  ,  ,  ,-87.7619104,41.9674386,  ,  ,  ,  ,  ,  ,  ,  ,  ,,,,,,
1049,Jeffery Manor,Chicago Public Library,2401 E. 100th Street,  ,Chicago,IL,60617,  ,  ,  ,  ,  ,  ,  ,  ,  ,-87.565756,41.7135063,  ,  ,  ,  ,  ,  ,  ,  ,  ,,,,,,
1050,Kelly,Chicago Public Library,6151 S. Normal Boulevard,  ,Chicago,IL,60621,  ,  ,  ,  ,  ,  ,  ,  ,  ,-87.6375222,41.7823511,  ,  ,  ,  ,  ,  ,  ,  ,  ,,,,,,
1051,King,Chicago Public Library,3436 S. King Drive,  ,Chicago,IL,60616,  ,  ,  ,  ,  ,  ,  ,  ,  ,-87.6173462,41.8319935,  ,  ,  ,  ,  ,  ,  ,  ,  ,,,,,,
1052,Legler,Chicago Public Library,115 S. Pulaski Road,  ,Chicago,IL,60624,  ,  ,  ,  ,  ,  ,  ,  ,  ,-87.7254183,41.8793131,  ,  ,  ,  ,  ,  ,  ,  ,  ,,,,,,
1053,Lincoln Belmont,Chicago Public Library,1659 W. Melrose Street,  ,Chicago,IL,60657,  ,  ,  ,  ,  ,  ,  ,  ,  ,-87.6708157,41.9405665,  ,  ,  ,  ,  ,  ,  ,  ,  ,,,,,,
1054,Lincoln Park,Chicago Public Library,1150 W. Fullerton Avenue,  ,Chicago,IL,60614,  ,  ,  ,  ,  ,  ,  ,  ,  ,-87.658094,41.925462,  ,  ,  ,  ,  ,  ,  ,  ,  ,,,,,,
1055,Little Village,Chicago Public Library,2311 South Kedize Avenue,  ,Chicago,IL,60623,  ,  ,  ,  ,  ,  ,  ,  ,  ,-87.7051227,41.8495557,  ,  ,  ,  ,  ,  ,  ,  ,  ,,,,,,
1056,Logan Square,Chicago Public Library,3030 W. Fullerton Avenue,  ,Chicago,IL,60647,  ,  ,  ,  ,  ,  ,  ,  ,  ,-87.703688,41.9249674,  ,  ,  ,  ,  ,  ,  ,  ,  ,,,,,,
1057,Lozano,Chicago Public Library,1805 S. Loomis Street,  ,Chicago,IL,60608,  ,  ,  ,  ,  ,  ,  ,  ,  ,-87.660933,41.8576229,  ,  ,  ,  ,  ,  ,  ,  ,  ,,,,,,
1058,Manning,Chicago Public Library,6 S. Hoyne Avenue,  ,Chicago,IL,60612,  ,  ,  ,  ,  ,  ,  ,  ,  ,-87.6793362,41.881136,  ,  ,  ,  ,  ,  ,  ,  ,  ,,,,,,
1059,Mayfair,Chicago Public Library,4400 W. Lawrence Avenue,  ,Chicago,IL,60630,  ,  ,  ,  ,  ,  ,  ,  ,  ,-87.7381352,41.9682266,  ,  ,  ,  ,  ,  ,  ,  ,  ,,,,,,
1060,McKinley Park,Chicago Public Library,1915 W. 35th Street,  ,Chicago,IL,60609,  ,  ,  ,  ,  ,  ,  ,  ,  ,-87.673438,41.830142,  ,  ,  ,  ,  ,  ,  ,  ,  ,,,,,,
1061,Merlo,Chicago Public Library,644 W. Belmont Avenue,  ,Chicago,IL,60657,  ,  ,  ,  ,  ,  ,  ,  ,  ,-87.6461346,41.9401029,  ,  ,  ,  ,  ,  ,  ,  ,  ,,,,,,
1062,Mount Greenwood,Chicago Public Library,11010 S. Kedzie Avenue,  ,Chicago,IL,60655,  ,  ,  ,  ,  ,  ,  ,  ,  ,-87.7007502,41.6932689,  ,  ,  ,  ,  ,  ,  ,  ,  ,,,,,,
1063,Near North,Chicago Public Library,310 W. Division Street,  ,Chicago,IL,60610,  ,  ,  ,  ,  ,  ,  ,  ,  ,-87.6365512,41.9038867,  ,  ,  ,  ,  ,  ,  ,  ,  ,,,,,,
1064,North Austin,Chicago Public Library,5724 W. North Avenue,  ,Chicago,IL,60639,  ,  ,  ,  ,  ,  ,  ,  ,  ,-87.7687268,41.9095101,  ,  ,  ,  ,  ,  ,  ,  ,  ,,,,,,
1065,North Pulaski,Chicago Public Library,4300 W. North Avenue,  ,Chicago,IL,60639,  ,  ,  ,  ,  ,  ,  ,  ,  ,-87.734039,41.91011,  ,  ,  ,  ,  ,  ,  ,  ,  ,,,,,,
1066,Northtown,Chicago Public Library,6435 N. California Avenue,  ,Chicago,IL,60645,  ,  ,  ,  ,  ,  ,  ,  ,  ,-87.6995525,41.9987833,  ,  ,  ,  ,  ,  ,  ,  ,  ,,,,,,
1067,Oriole Park,Chicago Public Library,7454 W. Balmoral Avenue,  ,Chicago,IL,60656,  ,  ,  ,  ,  ,  ,  ,  ,  ,-87.813301,41.9780382,  ,  ,  ,  ,  ,  ,  ,  ,  ,,,,,,
1068,Portage-Cragin,Chicago Public Library,5108 W. Belmont Avenue,  ,Chicago,IL,60641,  ,  ,  ,  ,  ,  ,  ,  ,  ,-87.7549437,41.9388347,  ,  ,  ,  ,  ,  ,  ,  ,  ,,,,,,
1069,Pullman,Chicago Public Library,11001 S. Indiana Avenue,  ,Chicago,IL,60628,  ,  ,  ,  ,  ,  ,  ,  ,  ,-87.6181552,41.694383,  ,  ,  ,  ,  ,  ,  ,  ,  ,,,,,,
1070,Roden,Chicago Public Library,6083 N. Northwest Highway,  ,Chicago,IL,60631,  ,  ,  ,  ,  ,  ,  ,  ,  ,-87.7981044,41.9919589,  ,  ,  ,  ,  ,  ,  ,  ,  ,,,,,,
1071,Rogers Park,Chicago Public Library,6907 N. Clark Street,  ,Chicago,IL,60626,  ,  ,  ,  ,  ,  ,  ,  ,  ,-87.673345,42.006783,  ,  ,  ,  ,  ,  ,  ,  ,  ,,,,,,
1072,Roosevelt,Chicago Public Library,1101 W. Taylor Street,  ,Chicago,IL,60607,  ,  ,  ,  ,  ,  ,  ,  ,  ,-87.6545135,41.8693809,  ,  ,  ,  ,  ,  ,  ,  ,  ,,,,,,
1073,Scottsdale,Chicago Public Library,4101 W. 79th Street,  ,Chicago,IL,60652,  ,  ,  ,  ,  ,  ,  ,  ,  ,-87.724307,41.7493853,  ,  ,  ,  ,  ,  ,  ,  ,  ,,,,,,
1074,Sherman Park,Chicago Public Library,5440 S. Racine Avenue,  ,Chicago,IL,60609,  ,  ,  ,  ,  ,  ,  ,  ,  ,-87.6550016,41.7947794,  ,  ,  ,  ,  ,  ,  ,  ,  ,,,,,,
1075,South Chicago,Chicago Public Library,9055 S. Houston Avenue,  ,Chicago,IL,60612,  ,  ,  ,  ,  ,  ,  ,  ,  ,-87.549561,41.7302138,  ,  ,  ,  ,  ,  ,  ,  ,  ,,,,,,
1076,South Shore,Chicago Public Library,2505 E. 73rd Street,  ,Chicago,IL,60649,  ,  ,  ,  ,  ,  ,  ,  ,  ,-87.5639241,41.7626314,  ,  ,  ,  ,  ,  ,  ,  ,  ,,,,,,
1077,Sulzer Regional,Chicago Public Library,4455 N. Lincoln Avenue,  ,Chicago,IL,60625,  ,  ,  ,  ,  ,  ,  ,  ,  ,-87.6842925,41.9625911,  ,  ,  ,  ,  ,  ,  ,  ,  ,,,,,,
1078,Thurgood Marshall,Chicago Public Library,7506 S. Racine Avenue,  ,Chicago,IL,60620,  ,  ,  ,  ,  ,  ,  ,  ,  ,-87.6539113,41.7575921,  ,  ,  ,  ,  ,  ,  ,  ,  ,,,,,,
1079,Toman,Chicago Public Library,2708 S. Pulaski Road,  ,Chicago,IL,60623,  ,  ,  ,  ,  ,  ,  ,  ,  ,-87.724832,41.842065,  ,  ,  ,  ,  ,  ,  ,  ,  ,,,,,,
1080,Uptown,Chicago Public Library,929 W. Buena Avenue,  ,Chicago,IL,60613,  ,  ,  ,  ,  ,  ,  ,  ,  ,-87.6541627,41.9583374,  ,  ,  ,  ,  ,  ,  ,  ,  ,,,,,,
1081,Vodak-East Side,Chicago Public Library,3710 E. 106th Street,  ,Chicago,IL,60617,  ,  ,  ,  ,  ,  ,  ,  ,  ,-87.5335433,41.7028472,  ,  ,  ,  ,  ,  ,  ,  ,  ,,,,,,
1082,Walker,Chicago Public Library,11071 S. Hoyne Avenue,  ,Chicago,IL,60643,  ,  ,  ,  ,  ,  ,  ,  ,  ,-87.6740299,41.6920796,  ,  ,  ,  ,  ,  ,  ,  ,  ,,,,,,
1083,Water Works,Chicago Public Library,163 E. Pearson Street,  ,Chicago,IL,60611,  ,  ,  ,  ,  ,  ,  ,  ,  ,-87.623225,41.897207,  ,  ,  ,  ,  ,  ,  ,  ,  ,,,,,,
1084,West Belmont,Chicago Public Library,3104 N. Narragansett Avenue,  ,Chicago,IL,60634,  ,  ,  ,  ,  ,  ,  ,  ,  ,-87.7860363,41.9367378,  ,  ,  ,  ,  ,  ,  ,  ,  ,,,,,,
1085,West Chicago Avenue,Chicago Public Library,4856 W. Chicago Avenue,  ,Chicago,IL,60651,  ,  ,  ,  ,  ,  ,  ,  ,  ,-87.7479503,41.8949934,  ,  ,  ,  ,  ,  ,  ,  ,  ,,,,,,
1086,West Englewood,Chicago Public Library,1745 W. 63rd Street,  ,Chicago,IL,60636,  ,  ,  ,  ,  ,  ,  ,  ,  ,-87.6681707,41.7792841,  ,  ,  ,  ,  ,  ,  ,  ,  ,,,,,,
1087,West Humboldt Park,Chicago Public Library,733 N. Kedzie Avenue,  ,Chicago,IL,60612,  ,  ,  ,  ,  ,  ,  ,  ,  ,-87.7064614,41.8943707,  ,  ,  ,  ,  ,  ,  ,  ,  ,,,,,,
1088,West Lawn,Chicago Public Library,4020 W. 63rd Street,  ,Chicago,IL,60629,  ,  ,  ,  ,  ,  ,  ,  ,  ,-87.7235322,41.7787228,  ,  ,  ,  ,  ,  ,  ,  ,  ,,,,,,
1089,West Pullman,Chicago Public Library,830 W. 119th Street,  ,Chicago,IL,60643,  ,  ,  ,  ,  ,  ,  ,  ,  ,-87.6432013,41.6778056,  ,  ,  ,  ,  ,  ,  ,  ,  ,,,,,,
1090,West Town,Chicago Public Library,1625 W. Chicago Avenue,  ,Chicago,IL,60622,  ,  ,  ,  ,  ,  ,  ,  ,  ,-87.668496,41.895745,  ,  ,  ,  ,  ,  ,  ,  ,  ,,,,,,
1091,"Whitney M. Young, Jr.",Chicago Public Library,7901 S. King Drive,  ,Chicago,IL,60619,  ,  ,  ,  ,  ,  ,  ,  ,  ,-87.6149161,41.7511027,  ,  ,  ,  ,  ,  ,  ,  ,  ,,,,,,
1092,Woodson Regional,Chicago Public Library,9525 S. Halsted Street,  ,Chicago,IL,60628,  ,  ,  ,  ,  ,  ,  ,  ,  ,-87.6430487,41.7197665,  ,  ,  ,  ,  ,  ,  ,  ,  ,,,,,,
1093,Wrightwood-Ashburn,Chicago Public Library,8530 S. Kedzie Avenue,  ,Chicago,IL,60652,  ,  ,  ,  ,  ,  ,  ,  ,  ,-87.702275,41.7375843,  ,  ,  ,  ,  ,  ,  ,  ,  ,,,,,,
1094,Abbot Park Senior Satellite Center,Senior Center,49 E. 95th St,  ,Chicago,IL,60619,312-745-3493,Users must be 55 and older.,6,not purchased yet,1.5 Mbps,up to 6 Mbps,yes,general senior center assistance,  ,-87.6221453,41.7215401,not activated yet,Free,  ,  ,  ,Timed,4 hour labs,  ,"Monday 8 to 4 

Tuesday 8 to 4 

Wednesday 8 to 4 

Thursday 8 to 4 

Friday 8 to 4 ",,,,,,
1095,Auburn Gresham Senior Satellite Center,Senior Center,1040 W. 79th St,  ,Chicago,IL,60620,312-745-4797,Must be 55 or older,6,not purchased yet,768 Mbps,6 Mbps,yes,general senior center assistance,  ,-87.6503269,41.7505517,not activated yet,Free,Across the street,  ,  ,Timed,lab time during the week,  ,"Monday 8 to 4 

Tuesday 8 to 4 

Wednesday 8 to 4 

Thursday 8 to 4 

Friday 8 to 4 ",,,,,,
1096,Austin Senior Satellite Center,Senior Center,5071 W. Congress Pkwy,  ,Chicago,IL,60644,312-743-1538,Seniors who are 55 years or older who have taken a computer course at the Center or who have demonstrated computer skills,6,not purchased yet,1 mbps,6 Mbps,yes,general senior center duties,  ,-87.7520968,41.873986,not activated yet,Free,"40 spaces(in front of and side of bldg., free","Single floor bldg, ADA accessible",Bus Line/ 1/2 block an 1 block away,Timed,lab time during the week,  ,"Monday 8:30 to 4:30 

Tuesday 8:30 to 4:30 

Wednesday 8:30 to 4:30 

Thursday 8:30 to 4:30 

Friday 8:30 to 4:30 ",,,,,,
1097,Chatham Senior Satellite Center,Senior Center,8300 S. Cottage Grove,  ,Chicago,IL,60619,312-745-0401,Open to 55 and older,7,not purchased yet,1 mbps,6 Mbps,yes,general senior center duties,  ,-87.605588,41.743501,not activated yet,Free,In designated areas18-32,Push buttons,  ,Timed,lab time during the week,  ,"Monday 8:30 to 4:30 

Tuesday 8:30 to 4:30 

Wednesday 8:30 to 4:30 

Thursday 8:30 to 4:30 

Friday 8:30 to 4:30 ",,,,,,
1098,Englewood Senior Satellite Center,Senior Center,653 - 657 W. 63rd St,  ,Chicago,IL,60621,312-745-3328,For seniors over 55.,6,not purchased,.25 mbps,.25 Mbps,yes,General senior center duties,  ,-87.6421,41.7797275,not activated yet,Free,free,  ,  ,Timed,lab time during the week,  ,"Monday 8:30 to 4:30 

Tuesday 8:30 to 4:30 

Wednesday 8:30 to 4:30 

Thursday 8:30 to 4:30 

Friday 8:30 to 4:30 ",,,,,,
1099,Edgewater Senior Satellite Center,Senior Center,5917 N. Broadway,  ,Chicago,IL,60660,312-742-5323,Seniors who are 55 and older,7,not purchased yet,768 Mbps,6 Mbps,yes,general senior center duties,  ,-87.6604282,41.9964054,not activated yet,Paid,Paid parking lot and metered street parking,Push button doors,"CTA, in front of facility",Timed,lab time during the week,  ,"Monday 8:30 to 4:30 

Tuesday 8:30 to 4:30 

Wednesday 8:30 to 4:30 

Thursday 8:30 to 4:30 

Friday 8:30 to 4:30 ",,,,,,
1100,Garfield Ridge Senior Satellite Center,Senior Center,5674-B S. Archer,  ,Chicago,IL,60638,312-745-4255,Seniors who are 55 and older,0,not purchased yet,1 mbps,384kbps,yes,General senior center duties,  ,-87.7529726,41.7974482,not activated yet,Free,  ,  ,  ,  ,  ,  ,"Monday 8 to 3 

Tuesday 8 to 3 

Wednesday 8 to 3 

Thursday 8 to 3 

Friday 8 to 3 ",,,,,,
1101,Kelvyn Park Senior Satellite Center,Senior Center,2715 N. Cicero,  ,Chicago,IL,60639,312-744-3350,Seniors who are 55 and older,7,not purchased yet,12Mpbs,2Mpbs,yes,General senior center duties,  ,-87.7463132,41.9301095,not activated yet,Free,parking on rear of building and side street,Push buttons,CTA in front,Timed,lab time during the week,  ,"Monday 8:30 to 4:30 

Tuesday 8:30 to 4:30 

Wednesday 8:30 to 4:30 

Thursday 8:30 to 4:30 

Friday 8:30 to 4:30 ",,,,,,
1102,North Center Senior Satellite Center,Senior Center,4040 N. Oakley,  ,Chicago,IL,60618,312-744-4015,Seniors who are 55 and older,6,not purchased yet,1.5 Mbps,384kbps,yes,General senior center duties,  ,-87.6860838,41.9554059,not activated yet,Free,Parking lot and side street,Push button Doors,CTA,Timed,lab time during the week,  ,"Monday 8:30 to 4:30 

Tuesday 8:30 to 4:30 

Wednesday 8:30 to 4:30 

Thursday 8:30 to 4:30 

Friday 8:30 to 4:30 ",,,,,,
1103,Norwood Senior Satellite Center,Senior Center,5801 N. Natoma,  ,Chicago,IL,60631,773-775-6071,Senior who are 55 and older,9,not purchased yet,1.5 Mbps,384kbps,yes,General senior center duties,  ,-87.7941343,41.9865927,not activated yet,Free,"Along side streets, local and free",Doorbel for assistance,Public transportation is 4 blocks away,Timed,lab time during the week,  ,"Monday 8:30 to 4:30 

Tuesday 8:30 to 4:30 

Wednesday 8:30 to 4:30 

Thursday 8:30 to 4:30 

Friday 8:30 to 4:30 ",,,,,,
1104,Pilsen Senior Satellite Center,Senior Center,2021 S. Morgan St.,  ,Chicago,IL,60608,111-111-1111,  ,  ,  ,  ,  ,  ,  ,  ,-87.6514466,41.8547234,  ,  ,  ,  ,  ,  ,  ,  ,  ,,,,,,
1105,Portage Park Senior Satellite Center,Senior Center,4100 N. Long,  ,Chicago,IL,60641,312-744-9022,Seniors who are 55 and older,2,not purchased yet,6.0Mbps,768Kbps,  ,  ,General Senior Center duties,-87.7635893,41.955369,not activated yet,Free,Parking lot,Doors with push buttons,CTA,Timed,lab time during the week,  ,"Monday 8:30 to 4:30 

Tuesday 8:30 to 4:30 

Wednesday 8:30 to 4:30 

Thursday 8:30 to 4:30 

Friday 8:30 to 4:30 ",,,,,,
1106,Roseland Senior Satellite Center,Senior Center,10426 S. Michigan Ave.,  ,Chicago,IL,60628,111-111-1111,  ,  ,  ,  ,  ,  ,  ,  ,-87.621149,41.704555,  ,  ,  ,  ,  ,  ,  ,  ,  ,,,,,,
1107,South Chicago Senior Satellite Center,Senior Center,9233 S. Burley Ave.,  ,Chicago,IL,60617,773-734-9181,  ,  ,  ,  ,  ,  ,  ,  ,-87.5455455,41.7277221,  ,  ,  ,  ,  ,  ,  ,  ,  ,,,,,,
1108,West Town Senior Satellite Center,Senior Center,1613 W. Chicago Ave,  ,Chicago,IL,60622,111-111-1111,  ,  ,  ,  ,  ,  ,  ,  ,-87.667921,41.895741,  ,  ,  ,  ,  ,  ,  ,  ,  ,,,,,,
1109,Northwest Senior Center,Senior Center,3160 N. Milwaukee,  ,Chicago,IL,60618,312-742-7692,Seniors who are 55 and older,1,not purchased yet,1.5 Mbps,384kbps,yes,for general senior center duties,  ,-87.7225466,41.938154,not activated yet,Free,Free with parking permit,Push button doors,CTA,Timed,lab time during the week,  ,"Monday 8:30 to 4:30 

Tuesday 8:30 to 4:30 

Wednesday 8:30 to 4:30 

Thursday 8:30 to 4:30 

Friday 8:30 to 4:30 

Saturday 9 - 12 ",,,,,,
1110,Northeast Senior Center,Senior Center,2019 W. Lawrence,  ,Chicago,IL,60625,111-111-1111,  ,  ,  ,  ,  ,  ,  ,  ,-87.6799957,41.9685728,  ,  ,  ,  ,  ,  ,  ,  ,  ,,,,,,
1111,Southeast Senior Center,Senior Center,1767 E. 79th St,  ,Chicago,IL,60649,312-745-4401,Seniors who are 55 and older,12,not purchased yet,1.5 Mbps,384kbps,yes,general senior center duties,  ,-87.5808523,41.7515252,not activated yet,Free,  ,  ,  ,Timed,lab time during the week,  ,"Monday 8:30 to 4:30 

Tuesday 8:30 to 4:30 

Wednesday 8:30 to 4:30 

Thursday 8:30 to 4:30 

Friday 8:30 to 4:30 

Saturday 9 to 4 ",,,,,,
1112,Southwest Senior Center,Senior Center,6117 S. Kedzie,  ,Chicago,IL,60629,312-745-3342,Seniors who are 55 and older,1,not purchased yet,1.5 Mbps,384kbps,yes,general senior center duties,  ,-87.702849,41.7820279,not activated yet,Free,  ,  ,  ,Timed,lab time during the week,  ,"Monday 8:30 to 4:30 

Tuesday 8:30 to 4:30 

Wednesday 8:30 to 4:30 

Thursday 8:30 to 4:30 

Friday 8:30 to 4:30 

Saturday 9 to 4 ",,,,,,
1113,Central West Senior Center,Senior Center,2102 W. Ogden,  ,Chicago,IL,60612,312-746-5300,Senior 60 and older,4,not purchased yet,1.5 Mbps,1.0 Mbps,yes,general senior center duties,  ,-87.678899,41.870543,Free Wifi,Free,Need to have permit,Automatic doors,  ,Timed,lab time during the week,  ,"Monday 8:30 to 4:30 

Tuesday 8:30 to 4:30 

Wednesday 8:30 to 4:30 

Thursday 8:30 to 4:30 

Friday 8:30 to 4:30 ",,,,,,
1114,Englewood Community Service Center,Community Service Center,845 W. 69th St.,  ,Chicago,IL,60621,111-111-1111,  ,  ,  ,  ,  ,  ,  ,  ,-87.6462822,41.7687163,  ,  ,  ,  ,  ,  ,  ,  ,  ,,,,,,
1115,Garfield Community Service Center,Community Service Center,10 S. Kedzie,  ,Chicago,IL,60612,111-111-1111,  ,  ,  ,  ,  ,  ,  ,  ,-87.706123,41.8806627,  ,  ,  ,  ,  ,  ,  ,  ,  ,,,,,,
1116,King Community Service Center,Community Service Center,4314 S. Cottage Grove Ave.,  ,Chicago,IL,60653,111-111-1111,  ,  ,  ,  ,  ,  ,  ,  ,-87.607065,41.8162639,  ,  ,  ,  ,  ,  ,  ,  ,  ,,,,,,
1117,North Area Community Service Center,Community Service Center,4740 N. Sheridan,  ,Chicago,IL,60640,111-111-1111,  ,  ,  ,  ,  ,  ,  ,  ,-87.6549891,41.968383,  ,  ,  ,  ,  ,  ,  ,  ,  ,,,,,,
1118,South Chicago Community Service Center,Community Service Center,8650 S. Commercial,  ,Chicago,IL,60617,111-111-1111,  ,  ,  ,  ,  ,  ,  ,  ,-87.5514395,41.7378293,  ,  ,  ,  ,  ,  ,  ,  ,  ,,,,,,
1119,Trina Davila Community Service Center,Community Service Center,4357 W. Armitage,  ,Chicago,IL,60639,111-111-1111,  ,  ,  ,  ,  ,  ,  ,  ,-87.7359191,41.9170493,  ,  ,  ,  ,  ,  ,  ,  ,  ,,,,,,
1120,Center on Halsted,YCDC,3656 N. Halsted,  ,Chicago,IL,60613,773-472-6469,"During the week time is set aside for our Youth Program, our Senior Program, and classes. Mon-Wed five computers have a one hour time limit, 15 do not. Thurs-Sunday all computers have a 90 minute time limit and each patron gets a maximum of one session.",20,Windows OS basics,1.72 Mbps,.96 Mbps,yes,"Volunteers manage the day to day lab operations. They set up user accounts, manage waiting lists, answer patron questions and maintain a safe environment. Volunteers are requested to pick up one 2-4 hour shift a week and volunteer for a minimum of 3 months.","Volunteers manage the day to day lab operations. They set up user accounts, manage waiting lists, answer patron questions and maintain a safe environment. Volunteers are requested to pick up one 2-4 hour shift a week and volunteer for a minimum of 3 months.",-87.6498011,41.9488772,Open and throughout entire building,Paid,Free street parking; paid meter parking,Elevator and doors.,Red line 3 blocks; Halsted across street; Broadway bus 1 block,unlimited,"Thursday through Sunday each patron gets one session max of 90 minutes. Mon-Wed five computers have a one hour time limit, the remaining 15 do not.",  ,"Sunday 10am-5:30pm 

Monday 10am-7:30pm 

Tuesday 10am-7:30pm 

Wednesday 10am-7:30pm 

Thursday 10am-7:30pm 

Friday 10am-5:30pm 

Saturday 10am-5:30pm ",,,,,,
1121,Phalanx Family Services,YCDC,1201 W. 115th St.,  ,Chicago,IL,60643,773-291-1086,No food or drinks. No cell phone use. Employment and job skills use only. Illinois WorkNet Social Networking allowed for youth programs.,23,None,7mbps,32mbps,yes,Assist with clients,  ,-87.65216,41.684479,N/A,Free,"Parking lot, 20+, free","No push button doors,",CTA bus on 115th and Racine,unlimited,"No time limit, classes blocked off for trainings",  ,"Monday 8:30am-5pm 

Tuesday 8:30am-5pm 

Wednesday 8:30am-5pm 

Thursday 8:30am-5pm 

Friday 8:30am-5pm ",,,,,,
1122,Central States SER,YCDC,3948 W. 26th St.,  ,Chicago,IL,60623,773-542-9030,Web Restrictions- No Social Media No food or drink,0,Will have touch screen,3.05,1.8,no,  ,  ,-87.7239103,41.8443264,WiFi is available for private use,Paid,Street metered parking,"Elevator, Ramp, Bathrooms",Bus stop in front of building,unlimited,  ,  ,"Monday 8:30am - 5:00pm 

Tuesday 8:30am - 5:00pm 

Wednesday 8:30am - 5:00pm 

Thursday 8:30am - 5:00pm 

Friday 8:30am - 5:00pm ",,,,,,
1123,Easter Seals Metropolitan Chicago,YCDC,2615 W. Division,  ,Chicago,IL,60622,773-904-1010,Users cannot save or download files or programs to the hard drive. Saving files or documents to a disk is acceptable. Users may not install or use their own software programs on the public computers. ,14,"Zoomtexts, alternative keyboard ",2.73 Mbps,2.58 Mbps ,no,  ,  ,-87.692592,41.902664,  ,Paid,Metered parking on main street,  ,CTA,Timed,During lab hours,  ,"Monday 8:30am-4:30pm 

Tuesday 8:30am-4:30pm 

Wednesday 8:30am-4:30pm 

Thursday 8:30am-4:30pm 

Friday 8:30am-4:30pm ",,,,,,
1124,Sinai Community Institute,YCDC,2653 W. Ogden Ave.,  ,Chicago,IL,60608,773-257-6508,None NO Food or Drink No Cell Phones No Cussing Time limit of 45 minutes No dowloading or burning CDs No illegal activity ,9,None,21Mbps,22Mbps,no,  ,  ,-87.6928013,41.8621376,Password Protected,Paid,"6 Level Parking Garage. $4.00-less than 1 hour, $5.25- 1-2 hours","Ramp inside building, but not push button doors.",2 Bus stops nearby,Timed,45 minutes,  ,"Monday 8:30am-6:00pm 

Tuesday 8:30am-6:00pm 

Wednesday 8:30am-6:00pm 

Thursday 8:30am-6:00pm 

Friday 8:30am-6:00pm ",,,,,,
1125,Catholic Bishop of Chicago/St. Sabina ERC,YCDC,7909 S. Racine,  ,Chicago,IL,60620,773-783-3760,We only asked that computers are not used to view or create potentially offensive material No Food or Drink No downloading No installing software,37,"Jaws, ZoomText, Dragon Naturally Speaking, ",10Mbps,50Mbps,yes,Volunteer assist with data input and monitoring the resource room,Volunteer will assist customers and with data input,-87.6536886,41.7503081,  ,Free,Parking available on the street,"Ramps, computers are accessible to wheelchair access, No push button doors","Bus at the corner of 79th and Racine, Redline about 1 mile",Timed,1 hour job search 2 hours for online job application,  ,"Monday 9am-5pm 

Tuesday 9am-5pm 

Wednesday 9am-5pm 

Thursday 9am-5pm 

Friday 9am-5pm 

Saturday 10am---1pm ",,,,,,
1126,Albany Park Community Center,WorkNet Chicago,"3403 W. Lawrence Ave., Suite 301",  ,Chicago,IL,60625,773-539-3828,DO NOT change any settings or download any programs onto the computers. PLEASE do not try to fix it yourself. See a staff member. Use computers for job search only. If not job related it is not allowed. Use ONLY the programs available on the system. Use of USBâ€™s is not allowed ,7,  ,2.84Mbps,2.19Mbps,yes,"Assist customers in online job search, applying for jobs online and resume reviews and updates. ",As above.,-87.7134459,41.9684087,  ,Paid,"Street, in front, 5-7 spaces, $1.75hr","Elevators and wide hallways, no push button entrance. All desks are handicap accessible.","CTA, in front of building entrance.",Timed,1 hour unless its not busy.,  ,"Monday 10am-4.30pm 

Tuesday 10am-4.30pm 

Wednesday 10am-4.30pm 

Thursday 10am-4.30pm 

Friday 10am-4.30pm ",,,,,,
1127,Asian Human Services,WorkNet Chicago,"4820 N. Broadway, 3rd Floor",  ,Chicago,IL,60640,773-293-8100,"Strictly employment related usage allowed (i.e. no youtube, facebook, etc.) No installations. ",11,  ,1.5Mbps,2Mbps,no,  ,Help at resource room.,-87.660461,41.969652,"Protected WPA2, strong stregn",Paid,"Street parking if available, $1.75hr",  ,"CTA, corner of the street.",Timed,45-60 mins,  ,"Monday 9-5 

Tuesday 9-5 

Wednesday 9-5 

Thursday 9-5 

Friday 9-5 ",,,,,,
1128,CARES Chicago,WorkNet Chicago,"3333 W. Arthington, Suite 139",  ,Chicago,IL,60624,111-111-1111,  ,  ,  ,  ,  ,  ,  ,  ,-87.7096229,41.869682,  ,  ,  ,  ,  ,  ,  ,  ,  ,,,,,,
1129,CFL/Workers Assistance Committee,WorkNet Chicago,"130 E. Randolph, Suite 2600",  ,Chicago,IL,60601,312-564-9431,"No computer games, gambling and pornography ",8,We do not have assistive technology.,1.5 MG,18 MG,no,  ,We would be interested in learning more about how volunteers are being utilized at other organizations.,-87.616811,41.884849,"Password protected, strong signal accessible throughout office.",Paid,"As we are located downtown, there is paid parking available in the Prudential Plaza and potential street parking.",The building is handicap accessible with elevators and doorbells at office entrance if assistance is needed. ,"various El stations and bus routes, metra",unlimited,Unlimited time between hours of operation,  ,"Monday 9 a.m. - 4:30 p.m. 

Tuesday 9 a.m. - 4:30 p.m. 

Wednesday 9:00 a.m. - 4:30 p.m. 

Thursday 9:00 a.m. - 4:30 p.m. 

Friday 9:00 a.m. - 4:30 p.m. ",,,,,,
1130,Chinese American Service League,WorkNet Chicago,2141 S. Tan Court,  ,Chicago,IL,60616,312-791-0418,The PC in resource center and computer training are designated to job seekers clients and/or youth particiapnts.,12,We have one enlarge keyboard and one enlarge screen in one of the PC in resource center.,700KB,6MB,yes,"Voluneers are helping out job seekers for mock interview and Vocational English as Second Langauge (VESL) training. Moreover, some volunteers are helping out youth participants in homework tutoring and ESL.",We would like to have more volunteers in helping out mock interviews for job seekers and homework tutoring and ACT preparation for youth participants.,-87.6358772,41.8544578,  ,Paid,Street parking,Only Elevatorts,  ,unlimited,  ,  ,"Monday 9am-7pm 

Tuesday 9am-7pm 

Wednesday 9am-7pm 

Thursday 9am-7pm 

Friday 9am-7pm ",,,,,,
1131,"Dynamic Educational Systems, Inc. ",WorkNet Chicago,11004 S. Michigan Ave.,  ,Chicago,IL,60628,  ,  ,  ,  ,  ,  ,  ,  ,  ,-87.6207866,41.6943107,  ,  ,  ,  ,  ,  ,  ,  ,  ,,,,,,
1132,"Dynamic Educational Systems, Inc. ",WorkNet Chicago,10001 S. Woodlawn Ave.,  ,Chicago,IL,60628,773-233-4364,  ,  ,  ,  ,  ,  ,  ,  ,-87.5903737,41.7141033,  ,  ,  ,  ,  ,  ,  ,  ,  ,,,,,,
1133,Easter Seals Metropolitan Chicago,WorkNet Chicago,"120 W. Madison, Oak Park",  ,Chicago,IL,60302,708-524-8700,Computers are only to be used for employment or educational purposes. All printed material must be relevant to employment and eduaction as well. ,65,Zoomtext Screen Reading Software JAWS Windows 7 Accessibility Options Narrator Sticky keys One stand-alone CCTV One Computer Split Screen CCTV Phone amplifier TTY ,  ,  ,no,  ,  ,-87.804292,41.879925,  ,  ,  ,  ,  ,  ,  ,  ,"Monday 8am-4pm 

Tuesday 8am-4pm 

Wednesday 8am-4pm 

Thursday 8am-4pm 

Friday 8am-4pm ",,,,,,
1134,Goodwill Industries,WorkNet Chicago,6054 South Western,  ,Chicago,IL,60629,773-627-5752,Usage of facebook website if restricted.,26,"Handicapped Accessible Computer Station with adjustable table. Phone Video Relay for Deaf and Hard of Hearing Population. Low front desk cubicle for customers in wheelchair, Screen Magnifyers.",.97Mbps,1.53Mbps,yes,"Volunteers assist and support staff in administrative support roles, usually contacting / re-engaging customers, informing customers of hiring events, workshops, etc.","To assist and support staff in administrative tasks, usually contacting / re-engaging customers, filing paperwork, informing customers of hiring events, workshops, etc.",-87.6851616,41.7791448,  ,Free,"Approximately 10 parking spots available in rear of facility, and additional parking across street of facility, in Blast Fitness Parking Area",Enlared / Widened Handicap Accessible Parking Spot Available,Bus Stop directly in front of facility,unlimited,"Facility has more than enough computers, that doesn't require time limits or restrictions in Lab",  ,"Monday 8am - 4pm 

Tuesday 8am - 4pm 

Wednesday 8am - 4pm 

Thursday 8am - 4pm 

Friday 8am - 4pm ",,,,,,
1135,Greater West Town Development Corporation,WorkNet Chicago,790 N. Milwaukee Avenue,  ,Chicago,IL,60622,312-563-9570,  ,  ,  ,  ,  ,  ,  ,  ,-87.6555939,41.895987,  ,  ,  ,  ,  ,  ,  ,  ,"Monday 8:00 am-4:30 pm 

Tuesday 8:00 am-4:30 pm 

Wednesday 8:00 am-4:30 pm 

Thursday 8:00 am-4:30 pm 

Friday 8:00 am-4:30 pm ",,,,,,
1136,Howard Area Community Center,WorkNet Chicago,1623 W. Howard Ave.,  ,Chicago,IL,60626,773-262-6622,Computers are only used for employment or educational purposes.,41,"Dragon Naturally Speaking System software, large print keyboards, wide screen monitors and 3M Gel Wrist Rests. ",6.48,49.85,yes,"Volunteers assist with computer classes, updating resumes, and job search. ",  ,-87.6727461,42.019484,"Available, WEP secured, Strong signal",Paid,"street parking, 10-12 spaces in fron, $1.75hr","No automatic door, but space is wide and all desks accommodate disabled, as well as single bathroom.","CTA bus and Red Line train, corner of the street for both.",unlimited,"Enough stations to allow unlimited time limit. If overcrowded, then time is regulated.",  ,"Monday 9 am- 5 pm 

Tuesday 9am- 8pm 

Wednesday 9am- 5pm 

Thursday 9am - 8pm 

Friday 9am - 5pm 

Saturday 9am - 1pm ",,,,,,
1137,Inspiration Corporation,WorkNet Chicago,"4554 N. Broadway, Suite 207",  ,Chicago,IL,60613,773-878-0981,"Lab is set up for 5 users at a time with a 30 min restriction, no food or drinks and no cell phone usage.",5,  ,2.64Mbps,1.54Mbps,yes,"Volunteers are used to monitor the resource room and to assist participants with computer based applications (mostly job search websites, e-mail, and MS Office applications).",  ,-87.6573309,41.9651855,  ,Paid,Street out front is metered. However there is neighborhood parking that is free. ,"Doors, elevator. ",Accessible via CTA red line and buses. ,Timed,"30 minutes, due to capacity. ",  ,"Monday 8:30-4:30 

Tuesday 8:30-4:30 

Wednesday 8:30-4:30 

Thursday 8:30-4:30 

Friday 8:30-4:30 ",,,,,,
1138,Instituto del Progreso Latino,WorkNet Chicago,4600 S. Wood,  ,Chicago,IL,60609,773-890-0055,No food or drink No social media (Facebook or Youtube),10,Jaws ZomText,1Mbps,1Mbps,yes,lab assistant,lab assitant and teachers aid,-87.6702229,41.8102159,  ,Free,Parking around neighborhood -but hard to find,All PC are handicap accessible however there are not handicap doors.,Bus at Ashland and 47th and the Orange Line is close by.,Timed,2 hours for non WIA registered users unlimited for WIA,  ,"Monday 9:00am - 5:00pm 

Tuesday 9:00am - 5:00pm 

Wednesday 9:00am - 5:00pm 

Thursday 9:00am - 5:00pm 

Friday 9:00am - 5:00pm ",,,,,,
1139,Polish American Association,WorkNet Chicago,3815-3819 N. Cicero,  ,Chicago,IL,60641,773-975-9898,  ,  ,  ,  ,  ,  ,  ,  ,-87.7471782,41.9503962,  ,  ,  ,  ,  ,  ,  ,  ,  ,,,,,,
1140,Pyramid Partnership Inc.,WorkNet Chicago,3057 N. Lincoln Avenue,  ,Chicago,IL,60657,773-975-9898,  ,12,  ,  ,  ,  ,  ,  ,-87.665162,41.93753,  ,Paid,"Paid on main street, free parking along side streets",  ,CTA,unlimited,  ,  ,  ,,,,,,
1141,Safer Foundation,WorkNet Chicago,571 W. Jackson Blvd,  ,Chicago,IL,60661,312-922-2200,"Pornographic Websites, Social Networking Websites",10,  ,2.79 MBPS,2.39 MBPS,yes,"Assist with typing class, Assist with day to day processing, Resumes, Setting up email addresses/ IWDS accounts and job search assistance",  ,-87.6422225,41.8779927,  ,Paid,"Pay to park lots, metered parking on street",  ,CTA,Timed,  ,  ,"Monday 8:00-4:00 

Tuesday 8:30-4:00 

Wednesday 8:00-4:00 

Thursday 8:30-4:00 

Friday 8:30-4:00 ",,,,,,
1142,"Ser Services, Inc.",WorkNet Chicago,"3948 W. 26th St., Suite 213",  ,Chicago,IL,60623,773-542-9030,Web Restrictions - no social networking ,29,None,6.0Mbps,6.0Mbps,yes,To monitor the PCC resource room.,  ,-87.7239103,41.8443264,WiFi is available for private use,Paid,Street metered parking,"Elevator, Ramp, Bathrooms",Bus stop in front of building,unlimited,  ,  ,"Monday 8:30-5 

Tuesday 8:30-5 

Wednesday 8:30-5 

Thursday 8:30-5 

Friday 8:30-5 ",,,,,,
1143,Southeast Chicago Development Comission,WorkNet Chicago,"2938 E. 91st, Room 304",  ,Chicago,IL,60617,111-111-1111,  ,  ,  ,  ,  ,  ,  ,  ,-87.5523829,41.7301711,  ,  ,  ,  ,  ,  ,  ,  ,  ,,,,,,
1144,Garfield Workforce Center,Workforce Centers,10 S. Kedzie,  ,Chicago,IL,60624,773-722-3885,"No food or drink, 1 hour time limit. No children allowed in Resource Room.",15,Clear View+,1.33mbps,1.34mbps,yes,We use them to help with the center,  ,-87.706123,41.8806627,  ,Free,"Parking lot, limited spaces 5-10, free",Ramps and doors with push button entry,"CTA, corner of the street",Timed,1 hour- sign in sheet.,  ,"Monday 9am-4:45pm 

Tuesday 9am-4:45pm 

Wednesday 9am-4:45pm 

Thursday 9am-4:45pm 

Friday 9am-4:45pm ",,,,,,
1145,Mid-South Workforce Center,Workforce Centers,4314 S. Cottage Grove Ave.,  ,Chicago,IL,60653,773-538-5627,Computers are for job search and training.,25,Jaws software Zoom Software Open Books Software Dragon Naturally Speaker Software Close circuit television Table top cassette player Pocket Talker Pro Traveller CCTV Magnifer ,3.89 mbps,4.04 mbps,no,  ,"Volunteers will: assist customers with resumes, cover letters, and job applications sign in customers and assign customers to computers place swipe cards information in the computers look up job information make copies and assist with faxes assist with various other assignments",-87.607065,41.8162639,  ,Free,There is free parking in the rear of the building for staff and visitors. There is also free parking on the Evans side of the building.,The building is Handicap accessible,The #4 Cottage Grove bus runs North and South; the number #43 runs east and west. ,Timed,Customers are allowed one hour on the computers.( Maybe more depending on how many people are waiting.),  ,"Sunday 8:30-5:00pm 

Monday 8:30am-5:00pm 

Tuesday 8:30 -5:00pm 

Wednesday 8:30-5:00p 

Thursday 8:30-5:00p 

Friday 8:30-5:00p ",,,,,,
1146,Pilsen Workforce Center,Workforce Centers,1657 S. Blue Island Ave.,  ,Chicago,IL,60608,222-222-2222,  ,  ,  ,  ,  ,  ,  ,  ,-87.660666,41.858696,  ,  ,  ,  ,  ,  ,  ,  ,  ,,,,,,
1147,Northside Workforce Center,Workforce Centers,4740 N. Sheridan,  ,Chicago,IL,60640,773-334-4747,  ,  ,  ,  ,  ,  ,  ,  ,-87.6549891,41.968383,  ,  ,  ,  ,  ,  ,  ,  ,  ,,,,,,
1148,Southwest Workforce Center,Workforce Centers,"7500 S. Pulaski, Bldg 100",  ,Chicago,IL,60652,773-884-7000,"Social Media Websites (i.e. Facebook), pornography, Paypal, Internet Shopping.",20,"Large Monitor, Large Print keyboards, Zoom Text, Open Book, JAWS, Audio Tape Player, Braille Labeler, Kensington Mouse, Dragon Natural Speaking, Adjustment Keyboard Tray",2.56Mbps,2.55Mbps,yes,IDES Work Study Students and Job Corp Interns assist in the Resource Room.,Resource Room and Intake Department.,-87.7238989,41.7561784,No Wifi is provided,Free,Free Parking lot on campus,"Ramps, Doors, Computers, Washrooms",Bus stops are located across the street,unlimited,One Hour Time Limit,  ,"Monday 8am-5pm 

Tuesday 8am-5pm 

Wednesday 8am-5pm 

Thursday 8am-5pm 

Friday 8am-5pm ",,,,,,
1149,Renaissance Court,Senior Center,78 E. Washington,  ,Chicago,IL,60602,312-744-4551,Seniors who are 55 and older,10,not purchaseed yet,1.5 Mbps,384kbps,yes,General Senior Center duties,  ,-87.6250434,41.8836686,Free,Paid,Paid Parking lots all around area,  ,  ,Timed,lab time during the week,  ,"Monday 8:30 to 4:30 

Tuesday 8:30 to 4:30 

Wednesday 8:30 to 4:30 

Thursday 8:30 to 4:30 

Friday 8:30 to 4:30 ",,,,,,
1150,HWC Hospitality Program,City Colleges of Chicago,226 W. Jackson Blvd.,  ,Chicago,IL,60606,111-111-1111,  ,  ,  ,  ,  ,  ,  ,  ,-87.6349993,41.8782266,  ,  ,  ,  ,  ,  ,  ,  ,  ,,,,,,
1151,Instituto del Progreso Latino,WorkNet Chicago,2520 S. Western,  ,Chicago,IL,60608,773-890-0055,  ,  ,  ,  ,  ,  ,  ,  ,-87.6841139,41.845649,  ,  ,  ,  ,  ,  ,  ,  ,  ,,,,,,
1152,MLK Boys & Girls Club YCDC,YCDC,2950 W. Washington Blvd.,  ,Chicago,IL,60612,111-111-1111,  ,  ,  ,  ,  ,  ,  ,  ,-87.7007017,41.8830661,  ,  ,  ,  ,  ,  ,  ,  ,  ,,,,,,
1153,Saint Sabina Employment Resource Center,WorkNet Chicago,7909 S. Racine,  ,Chicago,IL,60620,773-783-3760,  ,  ,  ,  ,  ,  ,  ,  ,-87.6536886,41.7503081,  ,  ,  ,  ,  ,  ,  ,  ,  ,,,,,,
1154,The Beloved Community/St. Sabina YCDC,YCDC,7909 S. Racine,  ,Chicago,IL,60620,773-783-3760,  ,  ,  ,  ,  ,  ,  ,  ,-87.6536886,41.7503081,  ,  ,  ,  ,  ,  ,  ,  ,  ,,,,,,
1155,Community Assistance Program,YCDC,11444 S. Halsted,  ,Chicago,IL,60628,111-111-1111,  ,  ,  ,  ,  ,  ,  ,  ,-87.6423929,41.6861527,  ,  ,  ,  ,  ,  ,  ,  ,  ,,,,,,
1156,Association House,YCDC,1116 N. Kedzie,  ,Chicago,IL,60651,111-111-1111,  ,  ,  ,  ,  ,  ,  ,  ,-87.7068317,41.9013272,  ,  ,  ,  ,  ,  ,  ,  ,  ,,,,,,
1157,Altgeld Gardens/Phillip Murray Homes,Chicago Housing Authority,951 E. 132nd Place,  ,Chicago,IL,60627,773-928-4116,No Food or drinks in the lab. No social media sites or games allowed. Children must be accompanied by an adult.,36,  ,Upload: 3.85mbps Download:39.88mbps,  ,no,  ,  ,-87.5965672,41.658957,  ,Free,Parking lot is out front and available,"There are handicap computers in the lab and a ram however, the outside doors are not handicap accessible.",Bus stop within walking distance,unlimited,  ,  ,"Monday 8AM - 5PM 

Tuesday 8AM - 5PM 

Wednesday 8AM - 5PM 

Thursday 8AM - 5PM 

Friday 8AM - 5PM ",,,,,,
1158,Bridgeport Homes,Chicago Housing Authority,844 West 32nd Street,  ,Chicago,IL,60608,111-111-1111,  ,  ,  ,  ,  ,  ,  ,  ,-87.6480658,41.8365469,  ,  ,  ,  ,  ,  ,  ,  ,  ,,,,,,
1159,ABLA Homes,Chicago Housing Authority,1254 S. Loomis,  ,Chicago,IL,60608,111-111-1111,  ,  ,  ,  ,  ,  ,  ,  ,-87.6617082,41.865442,  ,  ,  ,  ,  ,  ,  ,  ,  ,,,,,,
1160,Dearborn Homes,Chicago Housing Authority,2910 S Dearborn,  ,Chicago,IL,60616,312-225-0130,No Food or drinks in the lab. No social media sites or games allowed. ,28,Monitors for visually impaired - 24 inch,3.85mbps,39.88mbps,no,  ,  ,-87.6282323,41.8419464,  ,  ,  ,  ,  ,  ,  ,  ,"Monday 9am-5pm 

Tuesday 9am-5pm 

Wednesday 9am-5pm 

Thursday 9am-5pm 

Friday 9am-5pm ",,,,,,
1161,Lawndale Gardens,Chicago Housing Authority,2527 S. California,  ,Chicago,IL,60608,111-111-1111,  ,  ,  ,  ,  ,  ,  ,  ,-87.6952209,41.8459969,  ,  ,  ,  ,  ,  ,  ,  ,  ,,,,,,
1162,Wentworth Gardens,Chicago Housing Authority,3759 S. Wentworth,  ,Chicago,IL,60609,111-111-1111,  ,  ,  ,  ,  ,  ,  ,  ,-87.6313428,41.8258267,  ,  ,  ,  ,  ,  ,  ,  ,  ,,,,,,
1163,National Able,Workforce Centers,567 West Lake St,  ,Chicago,IL,60661,312-994-4208,"Restrict inappropriate websites like youtube, pandora, etc. No food or drink in lab or classroom",5,Not at this location,10mb,10mb,no,  ,  ,  ,  ,Open,Paid,"Metered, outside of building","Doors and Elevators, Classrooms are Handicap accessible, no ADA desks","CTA, Green Line and Pink Like, Union Station",Timed,Classroom Session,  ,"Monday 8:00am-4:30pm 

Tuesday 8:00am-4:30pm 

Wednesday 8:00am-4:30pm 

Thursday 8:00am-4:30pm 

Friday 8:00am-4:30pm ",,,,,,
,Greater Auburn Gresham Development Corporation,Business Resource Network,1159 W. 79th Street,,Chicago,IL,60620,(773) 483-3696,,,,,,,,,,,,,,,,,,,,http://www.auburngreshamportal.org,M-F 9a- 5P,yes,TRUE,TRUE,TRUE
,Greater Southwest Development Corporation,Business Resource Network,2601 W. 63rd Street,,Chicago,IL,60629,(773) 436-1000 x. 106,,,,,,,,,,,,,,,,,,,,http://www.chicagolawnportal.org,M-F 9a- 5P,yes,TRUE,FALSE,TRUE
,Instituto Del Progreso,Business Resource Network,2570 S. Blue Island,,Chicago,IL,60608,(773) 890-0055 x. 291,,,,,,,,,,,,,,,,,,,,http://www.pilsenportal.org/www.idpl.org,M-F 9a -5p,yes,TRUE,TRUE,TRUE
,West Humboldt Park Community Development Council,Business Resource Network,3620 W. Chicago Ave,,Chicago,IL,60657,(773) 342-0036,,,,,,,,,,,,,,,,,,,,http://www.humboldtparkportal.org,M-F 9a- 5P,yes,TRUE,TRUE,TRUE
,Albany Park,Chicago Public Library,5150 N. Kimball Avenue,,Chicago,IL,60625,(312) 744-1933,,,,,,,,,,,,,,,,,,,,http://www.chipublib.org/branch/details/library/albany-park/,"M: 2PM-6PM; TU, TH: 12PM-8PM; W: 10AM-6PM; F, SA: 9AM-5PM; SU: Closed",NA,TRUE,TRUE,TRUE
,Altgeld,Chicago Public Library,13281 S. Corliss Avenue,,Chicago,IL,60827,(312) 747-3270,,,,,,,,,,,,,,,,,,,,http://www.chipublib.org/branch/details/library/altgeld/,"M: 2PM-6PM; TU, TH: 10AM-6PM; W: 12PM-8PM; F, SA: 9AM-5PM; SU: Closed",NA,TRUE,TRUE,FALSE
,Archer Heights,Chicago Public Library,5055 S. Archer Avenue,,Chicago,IL,60632,(312) 747-9241,,,,,,,,,,,,,,,,,,,,http://www.chipublib.org/branch/details/library/archer-heights/,"M: 2PM-6PM; TU, TH: 10AM-6PM; W: 12PM-8PM; F, SA: 9AM-5PM; SU: Closed",NA,TRUE,TRUE,FALSE
,Austin,Chicago Public Library,5615 W. Race Avenue,,Chicago,IL,60644,(312) 746-5038,,,,,,,,,,,,,,,,,,,,http://www.chipublib.org/branch/details/library/austin/,"M: 2PM-6PM; TU, TH: 10AM-6PM; W: 12PM-8PM; F, SA: 9AM-5PM; SU: Closed",NA,TRUE,TRUE,FALSE
,Austin-Irving,Chicago Public Library,6100 W. Irving Park Road,,Chicago,IL,60634,(312) 744-6222,,,,,,,,,,,,,,,,,,,,http://www.chipublib.org/branch/details/library/austin-irving/,"M: 2PM-6PM; TU, TH: 10AM-6PM; W: 12PM-8PM; F, SA: 9AM-5PM; SU: Closed",NA,TRUE,TRUE,FALSE
,Avalon,Chicago Public Library,8148 S. Stony Island Avenue,,Chicago,IL,60617,(312) 747-5234,,,,,,,,,,,,,,,,,,,,http://www.chipublib.org/branch/details/library/avalon/,"M: 2PM-6PM; TU, TH: 10AM-6PM; W: 12PM-8PM; F, SA: 9AM-5PM; SU: Closed",NA,TRUE,TRUE,TRUE
,Beverly,Chicago Public Library,1962 W. 95th Street,,Chicago,IL,60643,(312) 747-9673,,,,,,,,,,,,,,,,,,,,http://www.chipublib.org/branch/details/library/beverly/,"M: 2PM-6PM; TU, TH: 10AM-6PM; W: 12PM-8PM; F, SA: 9AM-5PM; SU: Closed",NA,TRUE,TRUE,FALSE
,Bezazian,Chicago Public Library,1226 W. Ainslie Street,,Chicago,IL,60640,(312) 744-0019,,,,,,,,,,,,,,,,,,,,http://www.chipublib.org/branch/details/library/bezazian/,"M: 2PM-6PM; TU, TH: 10AM-6PM; W: 12PM-8PM; F, SA: 9AM-5PM; SU: Closed",NA,TRUE,TRUE,FALSE
,Blackstone,Chicago Public Library,4904 S. Lake Park Avenue,,Chicago,IL,60615,(312) 747-0511,,,,,,,,,,,,,,,,,,,,http://www.chipublib.org/branch/details/library/blackstone/,"M: 2PM-6PM; TU, TH: 10AM-6PM; W: 12PM-8PM; F, SA: 9AM-5PM; SU: Closed",NA,TRUE,TRUE,TRUE
,Brainerd,Chicago Public Library,1350 W. 89th Street,,Chicago,IL,60620,(312) 747-6291,,,,,,,,,,,,,,,,,,,,http://www.chipublib.org/branch/details/library/brainerd/,"M: 2PM-6PM; TU, TH: 12PM-8PM; W: 10AM-6PM; F, SA: 9AM-5PM; SU: Closed",NA,TRUE,TRUE,TRUE
,Brighton Park,Chicago Public Library,4314 S. Archer Avenue,,Chicago,IL,60632,(312) 747-0666,,,,,,,,,,,,,,,,,,,,http://www.chipublib.org/branch/details/library/brighton-park/,"M: 2PM-6PM; TU, TH: 12PM-8PM; W: 10AM-6PM; F, SA: 9AM-5PM; SU: Closed",NA,TRUE,TRUE,TRUE
,Bucktown-Wicker Park,Chicago Public Library,1701 N. Milwaukee Avenue,,Chicago,IL,60647,(312) 744-6022,,,,,,,,,,,,,,,,,,,,http://www.chipublib.org/branch/details/library/bucktown-wicker-park/,"M: 2PM-6PM; TU, TH: 10AM-6PM; W: 12PM-8PM; F, SA: 9AM-5PM; SU: Closed",NA,TRUE,TRUE,FALSE
,Budlong Woods,Chicago Public Library,5630 N. Lincoln Avenue,,Chicago,IL,60659,(312) 742-9590,,,,,,,,,,,,,,,,,,,,http://www.chipublib.org/branch/details/library/budlong-woods/,"M: 2PM-6PM; TU, TH: 10AM-6PM; W: 12PM-8PM; F, SA: 9AM-5PM; SU: Closed",NA,TRUE,TRUE,FALSE
,Canaryville,Chicago Public Library,642 W. 43rd Street,,Chicago,IL,60609,(312) 747-0644,,,,,,,,,,,,,,,,,,,,http://www.chipublib.org/branch/details/library/canaryville/,"M: 2PM-6PM; TU, TH: 10AM-6PM; W: 12PM-8PM; F, SA: 9AM-5PM; SU: Closed",NA,TRUE,TRUE,TRUE
,Chicago Bee,Chicago Public Library,3647 S. State Street,,Chicago,IL,60609,(312) 747-6872,,,,,,,,,,,,,,,,,,,,http://www.chipublib.org/branch/details/library/chicago-bee/,"M: 2PM-6PM; TU, TH: 10AM-6PM; W: 12PM-8PM; F, SA: 9AM-5PM; SU: Closed",NA,TRUE,TRUE,TRUE
,Chicago Lawn,Chicago Public Library,6120 S. Kedzie Avenue,,Chicago,IL,60629,(312) 747-0639,,,,,,,,,,,,,,,,,,,,http://www.chipublib.org/branch/details/library/chicago-lawn/,"M: 2PM-6PM; TU, TH: 12PM-8PM; W: 10AM-6PM; F, SA: 9AM-5PM; SU: Closed",NA,TRUE,TRUE,TRUE
,Chinatown,Chicago Public Library,2353 S. Wentworth Avenue,,Chicago,IL,60616,(312) 747-8013,,,,,,,,,,,,,,,,,,,,http://www.chipublib.org/branch/details/library/chinatown/,"M: 2PM-6PM; TU, TH: 10AM-6PM; W: 12PM-8PM; F, SA: 9AM-5PM; SU: Closed",NA,TRUE,TRUE,TRUE
,Clearing,Chicago Public Library,6423 W. 63rd Place,,Chicago,IL,60638,(312) 747-5657,,,,,,,,,,,,,,,,,,,,http://www.chipublib.org/branch/details/library/clearing/,"M: 2PM-6PM; TU, TH: 10AM-6PM; W: 12PM-8PM; F, SA: 9AM-5PM; SU: Closed",NA,TRUE,TRUE,FALSE
,Coleman,Chicago Public Library,731 E. 63rd Street,,Chicago,IL,60637,(312) 747-7760,,,,,,,,,,,,,,,,,,,,http://www.chipublib.org/branch/details/library/bessie-coleman/,"M: 2PM-6PM; TU, TH: 10AM-6PM; W: 12PM-8PM; F, SA: 9AM-5PM; SU: Closed",NA,TRUE,TRUE,TRUE
,"Daley, Richard J. - Bridgeport",Chicago Public Library,3400 S. Halsted Street,,Chicago,IL,60608,(312) 747-8990,,,,,,,,,,,,,,,,,,,,http://www.chipublib.org/branch/details/library/daley/,"M: 2PM-6PM; TU, TH: 12PM-8PM; W: 10AM-6PM; F, SA: 9AM-5PM; SU: Closed",NA,TRUE,TRUE,TRUE
,"Daley, Richard M. - West Humboldt Park",Chicago Public Library,733 N. Kedzie Avenue,,Chicago,IL,60612,(312) 743-0555,,,,,,,,,,,,,,,,,,,,http://www.chipublib.org/branch/details/library/daley-w-humboldt/,"M: 2PM-6PM; TU, TH: 12PM-8PM; W: 10AM-6PM; F, SA: 9AM-5PM; SU: Closed",NA,TRUE,TRUE,TRUE
,Douglass,Chicago Public Library,3353 W. 13th Street,,Chicago,IL,60623,(312) 747-3725,,,,,,,,,,,,,,,,,,,,http://www.chipublib.org/branch/details/library/douglass/,"M: 2PM-6PM; TU, TH: 12PM-8PM; W: 10AM-6PM; F, SA: 9AM-5PM; SU: Closed",NA,TRUE,TRUE,FALSE
,Dunning,Chicago Public Library,7455 W. Cornelia Avenue,,Chicago,IL,60634,(312) 743-0480,,,,,,,,,,,,,,,,,,,,http://www.chipublib.org/branch/details/library/dunning/,"M: 2PM-6PM; TU, TH: 10AM-6PM; W: 12PM-8PM; F, SA: 9AM-5PM; SU: Closed",NA,TRUE,TRUE,TRUE
,Edgebrook,Chicago Public Library,5331 W. Devon Avenue,,Chicago,IL,60646,(312) 744-8313,,,,,,,,,,,,,,,,,,,,http://www.chipublib.org/branch/details/library/edgebrook/,"M: 2PM-6PM; TU, TH: 10AM-6PM; W: 12PM-8PM; F, SA: 9AM-5PM; SU: Closed",NA,TRUE,TRUE,FALSE
,Edgewater,Chicago Public Library,1210 W. Elmdale Avenue,,Chicago,IL,60660,(312) 744-0718,,,,,,,,,,,,,,,,,,,,http://www.chipublib.org/branch/details/library/edgewater/,"M: Closed; TU-TH: 10AM-6PM; F, SA: 9AM-5PM; SU: Closed",NA,TRUE,TRUE,TRUE
,Gage Park,Chicago Public Library,2807 W. 55th Street,,Chicago,IL,60632,(312) 747-0032,,,,,,,,,,,,,,,,,,,,http://www.chipublib.org/branch/details/library/gage-park/,"M: 2PM-6PM; TU, TH: 12PM-8PM; W: 10AM-6PM; F, SA: 9AM-5PM; SU: Closed",NA,TRUE,TRUE,FALSE
,Galewood-Montclare,Chicago Public Library,6871 W. Belden Avenue,,Chicago,IL,60707,(312) 746-0165,,,,,,,,,,,,,,,,,,,,http://www.chipublib.org/branch/details/library/galewood-mont-clare/,"M: 2PM-6PM; TU-TH: 10AM-6PM; F: 9AM-5PM; SA, SU: Closed",NA,TRUE,TRUE,FALSE
,Garfield Ridge,Chicago Public Library,6348 S. Archer Avenue,,Chicago,IL,60638,(312) 747-6094,,,,,,,,,,,,,,,,,,,,http://www.chipublib.org/branch/details/library/garfield-ridge/,"M: 2PM-6PM; TU, TH: 12PM-8PM; W: 10AM-6PM; F, SA: 9AM-5PM; SU: Closed",NA,TRUE,TRUE,FALSE
,Greater Grand Crossing,Chicago Public Library,1000 East 73rd Street,,Chicago,IL,60619,(312) 745-1608,,,,,,,,,,,,,,,,,,,,http://www.chipublib.org/branch/details/library/greater-grand-crossing/,"M: 2PM-6PM; TU, TH: 10AM-6PM; W: 12PM-8PM; F, SA: 9AM-5PM; SU: Closed",NA,TRUE,TRUE,TRUE
,Hall,Chicago Public Library,4801 S. Michigan Avenue,,Chicago,IL,60615,(312) 747-2541,,,,,,,,,,,,,,,,,,,,http://www.chipublib.org/branch/details/library/hall/,"M: 2PM-6PM; TU, TH: 12PM-8PM; W: 10AM-6PM; F, SA: 9AM-5PM; SU: Closed",NA,TRUE,TRUE,TRUE
,Harold Washington-HWLC,Chicago Public Library,400 S. State Street,,Chicago,IL,60605,(312) 747-4300,,,,,,,,,,,,,,,,,,,,http://www.chipublib.org/branch/details/library/harold-washington/,"M-TH: 9AM-9PM; F, SA: 9AM-5PM; SU: 1PM-5PM",NA,TRUE,TRUE,TRUE
,Hegewisch,Chicago Public Library,3048 E. 130th Street,,Chicago,IL,60633,(312) 747-0046,,,,,,,,,,,,,,,,,,,,http://www.chipublib.org/branch/details/library/hegewisch/,"M: 2PM-6PM; TU, TH: 12PM-8PM; W: 10AM-6PM; F, SA: 9AM-5PM; SU: Closed",NA,TRUE,TRUE,FALSE
,Humboldt Park,Chicago Public Library,1605 N. Troy Street,,Chicago,IL,60647,(312) 744-2244,,,,,,,,,,,,,,,,,,,,http://www.chipublib.org/branch/details/library/humboldt/,"M: 2PM-6PM; TU, TH: 10AM-6PM; W: 12PM-8PM; F, SA: 9AM-5PM; SU: Closed",NA,TRUE,TRUE,TRUE
,Independence,Chicago Public Library,3548 W. Irving Park Road,,Chicago,IL,60618,(312) 744-0900,,,,,,,,,,,,,,,,,,,,http://www.chipublib.org/branch/details/library/independence/,"M: 2PM-6PM; TU, TH: 12PM-8PM; W: 10AM-6PM; F, SA: 9AM-5PM; SU: Closed",NA,TRUE,TRUE,FALSE
,Jefferson Park,Chicago Public Library,5363 W. Lawrence Avenue,,Chicago,IL,60630,(312) 744-1998,,,,,,,,,,,,,,,,,,,,http://www.chipublib.org/branch/details/library/jefferson-park/,"M: 2PM-6PM; TU, TH: 12PM-8PM; W: 10AM-6PM; F, SA: 9AM-5PM; SU: Closed",NA,TRUE,TRUE,FALSE
,Jeffery Manor,Chicago Public Library,2401 E. 100th Street,,Chicago,IL,60617,(312) 747-6479,,,,,,,,,,,,,,,,,,,,http://www.chipublib.org/branch/details/library/jeffery-manor/,"M: 2PM-6PM; TU, TH: 12PM-8PM; W: 10AM-6PM; F, SA: 9AM-5PM; SU: Closed",NA,TRUE,TRUE,TRUE
,Kelly,Chicago Public Library,6151 S. Normal Boulevard,,Chicago,IL,60621,(312) 747-8418,,,,,,,,,,,,,,,,,,,,http://www.chipublib.org/branch/details/library/kelly/,"M: 2PM-6PM; TU, TH: 12PM-8PM; W: 10AM-6PM; F, SA: 9AM-5PM; SU: Closed",NA,TRUE,TRUE,TRUE
,King,Chicago Public Library,3436 S. King Drive,,Chicago,IL,60616,(312) 747-7543,,,,,,,,,,,,,,,,,,,,http://www.chipublib.org/branch/details/library/king/,"M: 2PM-6PM; TU, TH: 12PM-8PM; W: 10AM-6PM; F, SA: 9AM-5PM; SU: Closed",NA,TRUE,TRUE,TRUE
,Legler,Chicago Public Library,115 S. Pulaski Road,,Chicago,IL,60624,(312) 746-7730,,,,,,,,,,,,,,,,,,,,http://www.chipublib.org/branch/details/library/legler/,"M: 2PM-6PM; TU, TH: 10AM-6PM; W: 12PM-8PM; F, SA: 9AM-5PM; SU: Closed",NA,TRUE,TRUE,TRUE
,Lincoln Belmont,Chicago Public Library,1659 W. Melrose Street,,Chicago,IL,60657,(312) 744-0166,,,,,,,,,,,,,,,,,,,,http://www.chipublib.org/branch/details/library/lincoln-belmont/,"M: 2PM-6PM; TU, TH: 12PM-8PM; W: 10AM-6PM; F, SA: 9AM-5PM; SU: Closed",NA,TRUE,TRUE,TRUE
,Lincoln Park,Chicago Public Library,1150 W. Fullerton Avenue,,Chicago,IL,60614,(312) 744-1926,,,,,,,,,,,,,,,,,,,,http://www.chipublib.org/branch/details/library/lincoln-park/,"M: 2PM-6PM; TU, TH: 12PM-8PM; W: 10AM-6PM; F, SA: 9AM-5PM; SU: Closed",NA,TRUE,TRUE,FALSE
,Little Village,Chicago Public Library,2311 S. Kedzie Avenue,,Chicago,IL,60623,(312) 745-1862,,,,,,,,,,,,,,,,,,,,http://www.chipublib.org/branch/details/library/little-village/,"M: 2PM-6PM; TU, TH: 12PM-8PM; W: 10AM-6PM; F, SA: 9AM-5PM; SU: Closed",NA,TRUE,TRUE,TRUE
,Logan Square,Chicago Public Library,3030 W. Fullerton Avenue,,Chicago,IL,60647,(312) 744-5295,,,,,,,,,,,,,,,,,,,,http://www.chipublib.org/branch/details/library/logan-square/,"M: 2PM-6PM; TU, TH: 12PM-8PM; W: 10AM-6PM; F, SA: 9AM-5PM; SU: Closed",NA,TRUE,TRUE,TRUE
,Lozano,Chicago Public Library,1805 S. Loomis Street,,Chicago,IL,60608,(312) 746-4329,,,,,,,,,,,,,,,,,,,,http://www.chipublib.org/branch/details/library/lozano/,"M: 2PM-6PM; TU, TH: 12PM-8PM; W: 10AM-6PM; F, SA: 9AM-5PM; SU: Closed",NA,TRUE,TRUE,TRUE
,Manning,Chicago Public Library,6 S. Hoyne Avenue,,Chicago,IL,60612,(312) 746-6800,,,,,,,,,,,,,,,,,,,,http://www.chipublib.org/branch/details/library/mabel-manning/,"M: 2PM-6PM; TU, TH: 10AM-6PM; W: 12PM-8PM; F, SA: 9AM-5PM; SU: Closed",NA,TRUE,TRUE,TRUE
,Mayfair,Chicago Public Library,4400 W. Lawrence Avenue,,Chicago,IL,60630,(312) 744-1254,,,,,,,,,,,,,,,,,,,,http://www.chipublib.org/branch/details/library/mayfair/,"M: 2PM-6PM; TU, TH: 10AM-6PM; W: 12PM-8PM; F, SA: 9AM-5PM; SU: Closed",NA,TRUE,TRUE,FALSE
,McKinley Park,Chicago Public Library,1915 W. 35th Street,,Chicago,IL,60609,(312) 747-6082,,,,,,,,,,,,,,,,,,,,http://www.chipublib.org/branch/details/library/mckinley-park/,"M: 2PM-6PM; TU, TH: 10AM-6PM; W: 12PM-8PM; F, SA: 9AM-5PM; SU: Closed",NA,TRUE,TRUE,FALSE
,Merlo,Chicago Public Library,644 W. Belmont Avenue,,Chicago,IL,60657,(312) 744-1139,,,,,,,,,,,,,,,,,,,,http://www.chipublib.org/branch/details/library/j-merlo-branch/,"M: 2PM-6PM; TU, TH: 10AM-6PM; W: 12PM-8PM; F, SA: 9AM-5PM; SU: Closed",NA,TRUE,TRUE,FALSE
,Mount Greenwood,Chicago Public Library,11010 S. Kedzie Avenue,,Chicago,IL,60655,(312) 747-2805,,,,,,,,,,,,,,,,,,,,http://www.chipublib.org/branch/details/library/mt-greenwood/,"M: 2PM-6PM; TU, TH: 12PM-8PM; W: 10AM-6PM; F, SA: 9AM-5PM; SU: Closed",NA,TRUE,TRUE,FALSE
,Near North,Chicago Public Library,310 W. Division Street,,Chicago,IL,60610,(312) 744-0991,,,,,,,,,,,,,,,,,,,,http://www.chipublib.org/branch/details/library/near-north/,"M: 2PM-6PM; TU, TH: 10AM-6PM; W: 12PM-8PM; F, SA: 9AM-5PM; SU: Closed",NA,TRUE,TRUE,TRUE
,North Austin,Chicago Public Library,5724 W. North Avenue,,Chicago,IL,60639,(312) 746-4233,,,,,,,,,,,,,,,,,,,,http://www.chipublib.org/branch/details/library/north-austin/,"M: 2PM-6PM; TU, TH: 10AM-6PM; W: 12PM-8PM; F, SA: 9AM-5PM; SU: Closed",NA,TRUE,TRUE,TRUE
,North Pulaski,Chicago Public Library,4300 W. North Avenue,,Chicago,IL,60639,(312) 744-9573,,,,,,,,,,,,,,,,,,,,http://www.chipublib.org/branch/details/library/north-pulaski/,"M: 2PM-6PM; TU, TH: 12PM-8PM; W: 10AM-6PM; F, SA: 9AM-5PM; SU: Closed",NA,TRUE,TRUE,FALSE
,Northtown,Chicago Public Library,6435 N. California Avenue,,Chicago,IL,60645,(312) 744-2292,,,,,,,,,,,,,,,,,,,,http://www.chipublib.org/branch/details/library/northtown/,"M: 2PM-6PM; TU, TH: 12PM-8PM; W: 10AM-6PM; F, SA: 9AM-5PM; SU: Closed",NA,TRUE,TRUE,FALSE
,Oriole Park,Chicago Public Library,7454 W. Balmoral Avenue,,Chicago,IL,60656,(312) 744-1965,,,,,,,,,,,,,,,,,,,,http://www.chipublib.org/branch/details/library/oriole-park/,"M: 2PM-6PM; TU, TH: 10AM-6PM; W: 12PM-8PM; F, SA: 9AM-5PM; SU: Closed",NA,TRUE,TRUE,TRUE
,Portage-Cragin,Chicago Public Library,5108 W. Belmont Avenue,,Chicago,IL,60641,(312) 744-0152,,,,,,,,,,,,,,,,,,,,http://www.chipublib.org/branch/details/library/portage-cragin/,"M: 2PM-6PM; TU, TH: 10AM-6PM; W: 12PM-8PM; F, SA: 9AM-5PM; SU: Closed",NA,TRUE,TRUE,TRUE
,Pullman,Chicago Public Library,11001 S. Indiana Avenue,,Chicago,IL,60628,(312) 747-2033,,,,,,,,,,,,,,,,,,,,http://www.chipublib.org/branch/details/library/pullman/,"M: 2PM-6PM; TU, TH: 12PM-8PM; W: 10AM-6PM; F, SA: 9AM-5PM; SU: Closed",NA,TRUE,TRUE,TRUE
,Roden,Chicago Public Library,6083 N. Northwest Highway,,Chicago,IL,60631,(312) 744-1478,,,,,,,,,,,,,,,,,,,,http://www.chipublib.org/branch/details/library/roden/,"M: 2PM-6PM; TU, TH: 12PM-8PM; W: 10AM-6PM; F, SA: 9AM-5PM; SU: Closed",NA,TRUE,TRUE,FALSE
,Rogers Park,Chicago Public Library,6907 N. Clark Street,,Chicago,IL,60626,(312) 744-0156,,,,,,,,,,,,,,,,,,,,http://www.chipublib.org/branch/details/library/rogers-park/,"M: 2PM-6PM; TU, TH: 10AM-6PM; W: 12PM-8PM; F, SA: 9AM-5PM; SU: Closed",NA,TRUE,TRUE,TRUE
,Roosevelt,Chicago Public Library,1101 W. Taylor Street,,Chicago,IL,60607,(312) 746-5656,,,,,,,,,,,,,,,,,,,,http://www.chipublib.org/branch/details/library/roosevelt/,"M: 2PM-6PM; TU, TH: 10AM-6PM; W: 12PM-8PM; F, SA: 9AM-5PM; SU: Closed",NA,TRUE,TRUE,TRUE
,Scottsdale,Chicago Public Library,4101 W. 79th Street,,Chicago,IL,60652,(312) 747-0193,,,,,,,,,,,,,,,,,,,,http://www.chipublib.org/branch/details/library/scottsdale/,"M: 2PM-6PM; TU, TH: 12PM-8PM; W: 10AM-6PM; F, SA: 9AM-5PM; SU: Closed",NA,TRUE,TRUE,FALSE
,Sherman Park,Chicago Public Library,5440 S. Racine Avenue,,Chicago,IL,60609,(312) 747-0477,,,,,,,,,,,,,,,,,,,,http://www.chipublib.org/branch/details/library/sherman-park/,"M: 2PM-6PM; TU, TH: 10AM-6PM; W: 12PM-8PM; F, SA: 9AM-5PM; SU: Closed",NA,TRUE,TRUE,TRUE
,South Chicago,Chicago Public Library,9055 S. Houston Avenue,,Chicago,IL,60617,(312) 747-8065,,,,,,,,,,,,,,,,,,,,http://www.chipublib.org/branch/details/library/south-chicago/,"M: 2PM-6PM; TU, TH: 10AM-6PM; W: 12PM-8PM; F, SA: 9AM-5PM; SU: Closed",NA,TRUE,TRUE,TRUE
,South Shore,Chicago Public Library,2505 E. 73rd Street,,Chicago,IL,60649,(312) 747-5281,,,,,,,,,,,,,,,,,,,,http://www.chipublib.org/branch/details/library/south-shore/,"M: 2PM-6PM; TU, TH: 12PM-8PM; W: 10AM-6PM; F, SA: 9AM-5PM; SU: Closed",NA,TRUE,TRUE,TRUE
,Sulzer Regional,Chicago Public Library,4455 N. Lincoln Avenue,,Chicago,IL,60625,(312) 744-7616,,,,,,,,,,,,,,,,,,,,http://www.chipublib.org/branch/details/library/sulzer-regional/,"M-TH: 9AM-9PM; F, SA: 9AM-5PM; SU: 1PM-5PM",NA,TRUE,TRUE,TRUE
,Thurgood Marshall,Chicago Public Library,7506 S. Racine Avenue,,Chicago,IL,60620,(312) 747-5927,,,,,,,,,,,,,,,,,,,,http://www.chipublib.org/branch/details/library/thurgood-marshall/,"M: 2PM-6PM; TU, TH: 10AM-6PM; W: 12PM-8PM; F, SA: 9AM-5PM; SU: Closed",NA,TRUE,TRUE,TRUE
,Toman,Chicago Public Library,2708 S. Pulaski Road,,Chicago,IL,60623,(312) 745-1660,,,,,,,,,,,,,,,,,,,,http://www.chipublib.org/branch/details/library/toman/,"M: 2PM-6PM; TU, TH: 10AM-6PM; W: 12PM-8PM; F, SA: 9AM-5PM; SU: Closed",NA,TRUE,TRUE,TRUE
,Uptown,Chicago Public Library,929 W. Buena Avenue,,Chicago,IL,60613,(312) 744-8400,,,,,,,,,,,,,,,,,,,,http://www.chipublib.org/branch/details/library/uptown/,"M: 2PM-6PM; TU, TH: 12PM-8PM; W: 10AM-6PM; F, SA: 9AM-5PM; SU: Closed",NA,TRUE,TRUE,TRUE
,Vodak-East Side,Chicago Public Library,3710 E. 106th Street,,Chicago,IL,60617,(312) 747-5500,,,,,,,,,,,,,,,,,,,,http://www.chipublib.org/branch/details/library/vodak-east-side/,"M: 2PM-6PM; TU, TH: 10AM-6PM; W: 12PM-8PM; F, SA: 9AM-5PM; SU: Closed",NA,TRUE,TRUE,TRUE
,Walker,Chicago Public Library,11071 S. Hoyne Avenue,,Chicago,IL,60643,(312) 747-1920,,,,,,,,,,,,,,,,,,,,http://www.chipublib.org/branch/details/library/walker/,"M: 2PM-6PM; TU, TH: 12PM-8PM; W: 10AM-6PM; F, SA: 9AM-5PM; SU: Closed",NA,TRUE,TRUE,FALSE
,Water Works,Chicago Public Library,163 E. Pearson Street,,Chicago,IL,60611,(312) 742-8811,,,,,,,,,,,,,,,,,,,,http://www.chipublib.org/branch/details/library/water-works/,"M-TH: 9AM-7PM; F, SA: 9AM-5PM; SU: 1PM-5PM",NA,TRUE,TRUE,FALSE
,West Belmont,Chicago Public Library,3104 N. Narragansett Avenue,,Chicago,IL,60634,(312) 746-5142,,,,,,,,,,,,,,,,,,,,http://www.chipublib.org/branch/details/library/west-belmont/,"M: 2PM-6PM; TU, TH: 12PM-8PM; W: 10AM-6PM; F, SA: 9AM-5PM; SU: Closed",NA,TRUE,TRUE,FALSE
,West Chicago Avenue,Chicago Public Library,4856 W. Chicago Avenue,,Chicago,IL,60651,(312) 743-0260,,,,,,,,,,,,,,,,,,,,http://www.chipublib.org/branch/details/library/west-chicago-avenue/,"M: 2PM-6PM; TU, TH: 12PM-8PM; W: 10AM-6PM; F, SA: 9AM-5PM; SU: Closed",NA,TRUE,TRUE,TRUE
,West Englewood,Chicago Public Library,1745 W. 63rd Street,,Chicago,IL,60636,(312) 747-3481,,,,,,,,,,,,,,,,,,,,http://www.chipublib.org/branch/details/library/west-englewood/,"M: 2PM-6PM; TU, TH: 10AM-6PM; W: 12PM-8PM; F, SA: 9AM-5PM; SU: Closed",NA,TRUE,TRUE,TRUE
,West Lawn,Chicago Public Library,4020 W. 63rd Street,,Chicago,IL,60629,(312) 747-7381,,,,,,,,,,,,,,,,,,,,http://www.chipublib.org/branch/details/library/west-lawn/,"M: 2PM-6PM; TU, TH: 10AM-6PM; W: 12PM-8PM; F, SA: 9AM-5PM; SU: Closed",NA,TRUE,TRUE,FALSE
,West Pullman,Chicago Public Library,830 W. 119th Street,,Chicago,IL,60643,(312) 747-1425,,,,,,,,,,,,,,,,,,,,http://www.chipublib.org/branch/details/library/west-pullman/,"M: 2PM-6PM; TU, TH: 10AM-6PM; W: 12PM-8PM; F, SA: 9AM-5PM; SU: Closed",NA,TRUE,TRUE,FALSE
,West Town,Chicago Public Library,1625 W. Chicago Ave,,Chicago,IL,60622,(312) 743-0450,,,,,,,,,,,,,,,,,,,,http://www.chipublib.org/branch/details/library/west-town/,"M, W: 10AM-6PM; TU, TH: 12AM-8PM; F-SA: 9AM-5PM; SU: Closed",No,TRUE,TRUE,TRUE
,West Town,Chicago Public Library,1625 W. Chicago Avenue,,Chicago,IL,60622,(312) 743-0450,,,,,,,,,,,,,,,,,,,,http://www.chipublib.org/branch/details/library/west-town/,"M: 2PM-6PM; TU, TH: 12PM-8PM; W: 10AM-6PM; F, SA: 9AM-5PM; SU: Closed",N,TRUE,TRUE,TRUE
,"Whitney M. Young, Jr.",Chicago Public Library,7901 S. King Drive,,Chicago,IL,60619,(312) 747-0039,,,,,,,,,,,,,,,,,,,,http://www.chipublib.org/branch/details/library/whitney-young/,"M: 2PM-6PM; TU, TH: 12PM-8PM; W: 10AM-6PM; F, SA: 9AM-5PM; SU: Closed",NA,TRUE,TRUE,FALSE
,Woodson Regional,Chicago Public Library,9525 S. Halsted Street,,Chicago,IL,60628,(312) 747-6900,,,,,,,,,,,,,,,,,,,,http://www.chipublib.org/branch/details/library/woodson-regional/,"M-TH: 9AM-9PM; F, SA: 9AM-5PM; SU: 1PM-5PM",NA,TRUE,TRUE,TRUE
,Wrightwood-Ashburn,Chicago Public Library,8530 S. Kedzie Avenue,,Chicago,IL,60652,(312) 747-2696,,,,,,,,,,,,,,,,,,,,http://www.chipublib.org/branch/details/library/wrightwood/,"M: 2PM-6PM; TU, TH: 10AM-6PM; W: 12PM-8PM; F, SA: 9AM-5PM; SU: Closed",NA,TRUE,TRUE,FALSE
,Agassiz Elementary,Chicago Public School,2851 N Seminary Ave,,Chicago,IL,60657,(773) 534-5725,,,,,,,,,,,,,,,,,,,,http://www.agassizschool.org/,Call for hours,No,TRUE,TRUE,FALSE
,Alexander Graham Bell Elementary School,Chicago Public School,3730 N Oakley Ave,,Chicago,IL,60618,(773) 534-5150,,,,,,,,,,,,,,,,,,,,http://www.agbellschool.com,Call for hours,No,TRUE,TRUE,TRUE
,Black Magnet School,Chicago Public School,9101 S Euclid Ave,,Chicago,IL,60617,(773) 535-6390,,,,,,,,,,,,,,,,,,,,http://www.cps.edu/Schools/Pages/school.aspx?unit=7860,Call for hours,No,TRUE,FALSE,TRUE
,Cristo Rey Jesuit High School,Chicago Public School,1852 W 22nd Pl,,Chicago,IL,60608,(773) 890-6800,,,,,,,,,,,,,,,,,,,,http://www.cristorey.net/,Call for hours,No,TRUE,TRUE,FALSE
,Eli Whitney Elementary School CTC,Chicago Public School,2815 S. Komensky,,Chicago,IL,60623,(773) 540-8236,,,,,,,,,,,,,,,,,,,,http://www.cps.edu/Schools/Pages/school.aspx?unit=6440,M-TH: 3PM-8PM; SA: 9AM-1PM,No,TRUE,TRUE,TRUE
,Henson Elementary School,Chicago Public School,1326 S Avers Ave,,Chicago,IL,60623,(773) 534-1804,,,,,,,,,,,,,,,,,,,,http://www.cps.edu/Schools/Pages/school.aspx?unit=6570,Call for hours,Yes,TRUE,TRUE,FALSE
,Hubbard High School,Chicago Public School,6200 S Hamlin Ave,,Chicago,IL,60629,(773) 535-2200,,,,,,,,,,,,,,,,,,,,http://www.hubbard.cps.k12.il.us/,Call for hours,Yes,TRUE,TRUE,FALSE
,John Barry Elementary School,Chicago Public School,2828 N Kilbourn Ave,,Chicago,IL,60641,(773) 534-3455,,,,,,,,,,,,,,,,,,,,http://www.barry.cps.k12.il.us/,Call for hours,Yes,TRUE,TRUE,FALSE
,John C. Coonley Elementary School,Chicago Public School,4046 N Leavitt St,,Chicago,IL,60618,(773) 534-5140?,,,,,,,,,,,,,,,,,,,,http://coonley.org/,Call for hours,Yes,TRUE,FALSE,FALSE
,John Hope College Prep High School,Chicago Public School,5515 S Lowe Ave,,Chicago,IL,60621,(773) 535-3160,,,,,,,,,,,,,,,,,,,,http://www.johnhopecollegeprep.org/,Call for hours,Yes,TRUE,FALSE,FALSE
,Kelvyn Park High School,Chicago Public School,4343 W Wrightwood Ave,,Chicago,IL,60639,(773) 534-4200,,,,,,,,,,,,,,,,,,,,http://www.kelvynparkhs.org/,Call for hours,Yes,TRUE,FALSE,TRUE
,Monroe Elementary School,Chicago Public School,3651 W Schubert Ave,,Chicago,IL,60647,(773) 534-4155,,,,,,,,,,,,,,,,,,,,http://www.jamesmonroeschool.org/education/school/school.php?sectionid=3,Call for hours,Yes,TRUE,TRUE,FALSE
,Patrick Henry Elementary School,Chicago Public School,4250 N. St. Louis Ave.,,Chicago,IL,60618,(773) 534-5060,,,,,,,,,,,,,,,,,,,,http://www.henry.cps.k12.il.us/,Call for hours,Yes,TRUE,FALSE,FALSE
,Saucedo Scholastic Academy,Chicago Public School,2850 W 24th Blvd # 4250,,Chicago,IL,60623,(773) 534-1770,,,,,,,,,,,,,,,,,,,,http://www.cps.edu/Schools/Pages/school.aspx?unit=4250,SA: 11AM-12:45PM,Yes,TRUE,FALSE,TRUE
,Sawyer Elementary School,Chicago Public School,5248 S Sawyer Ave,,Chicago,IL,60632,(773) 535-9275,,,,,,,,,,,,,,,,,,,,http://www.sawyer.cps.k12.il.us/,Call for hours,Yes,TRUE,TRUE,FALSE
,Harold Washington College,City Colleges of Chicago,30 E. Lake Street,,Chicago,IL,60601,(312) 553-5655,,,,,,,,,,,,,,,,,,,,http://hwashington.ccc.edu/,Call for hours,No,TRUE,TRUE,TRUE
,Harry S. Truman College,City Colleges of Chicago,1145 W. Wilson,,Chicago,IL,60640,(773) 907-4429 or (773) 907-3998 or (773) 907-4849,,,,,,,,,,,,,,,,,,,,http://www.trumancollege.edu/index.php,Call for hours,No,TRUE,TRUE,TRUE
,Kennedy-King College,City Colleges of Chicago,6301 S. Halsted Street,,Chicago,IL,60621,(773) 602-5198 or (773) 602-5199,,,,,,,,,,,,,,,,,,,,http://kennedyking.ccc.edu/,Call for hours,No,TRUE,TRUE,TRUE
,Malcolm X College,City Colleges of Chicago,1900 W. Van Buren,,Chicago,IL,60612,(312) 850-7197,,,,,,,,,,,,,,,,,,,,http://malcolmx.ccc.edu/,Call for hours,No,TRUE,TRUE,TRUE
,Olive-Harvey College,City Colleges of Chicago,10001 S. Woodlawn Ave.,,Chicago,IL,60628,(773) 291-6620,,,,,,,,,,,,,,,,,,,,http://oliveharvey.ccc.edu/,Call for hours,No,TRUE,TRUE,TRUE
,Richard J. Daley College,City Colleges of Chicago,7500 S. Pulaski Ave.,,Chicago,IL,60652,(773) 838-7770 or (773) 838-7923,,,,,,,,,,,,,,,,,,,,http://daley.ccc.edu/,Call for hours,No,TRUE,TRUE,TRUE
,Wilbur Wright College,City Colleges of Chicago,4300 N. Narragansett,,Chicago,IL,60634,(773) 481-8775,,,,,,,,,,,,,,,,,,,,http://wright.ccc.edu/,Call for hours,No,TRUE,TRUE,TRUE
,A Knock At Midnight Tech Center,Community Technology Center,"400 W. 76th Street, Ste. 206",,Chicago,IL,60620,(773) 488-2960,,,,,,,,,,,,,,,,,,,,http://www.akamworks.org,M-F: 10AM-5PM,Yes,TRUE,TRUE,TRUE
,AHS Career Resource Center,Community Technology Center,"4820 N. Broadway, 3rd floor",,Chicago,IL,60640,(773) 293-8119,,,,,,,,,,,,,,,,,,,,http://www.ahschicago.org,M-F: 10AM-4PM,No,TRUE,FALSE,TRUE
,"Albany Park Community Center, Inc.",Community Technology Center,5121 N. Kimball,,Chicago,IL,60625,(773) 583-5062,,,,,,,,,,,,,,,,,,,,http://www.apcc-chgo.org/,M-TH: 9AM-9PM; F: 12PM-6PM; SA: 9AM-4PM,No,TRUE,FALSE,TRUE
,Alternatives' CTC,Community Technology Center,4730 N. Sheridan Road,,Chicago,IL,60640,(773) 506-7474,,,,,,,,,,,,,,,,,,,,http://www.alternativesyouth.org,M-F: 4PM-7PM; SA: 12PM- 4PM,No,TRUE,FALSE,TRUE
,Archer Courts CTC,Community Technology Center,2242 South Princeton,,Chicago,IL,60616,(312) 225-5340,,,,,,,,,,,,,,,,,,,,http://www.cohd.com/,"M, W: 11AM-5PM; TU, TH: 1PM-5PM",No,TRUE,FALSE,TRUE
,Arthur D. Griffin Community Learn Center,Community Technology Center,1613 West Washington Blvd.,,Chicago,IL,60612,(773) 243-1373,,,,,,,,,,,,,,,,,,,,http://www.adgclc.org,T-F: 9:30AM-12:30PM & 3:30PM-8PM; SA: 10PM-2PM,,TRUE,TRUE,TRUE
,"Asian Human Services, LEAF Program",Community Technology Center,6015 N. Francisco,,Chicago,IL,60659,(773) 338-5943,,,,,,,,,,,,,,,,,,,,http://www.ahschicago.org,M-F: 9AM-5PM,No,TRUE,FALSE,TRUE
,Association House of Chicago,Community Technology Center,1116 N. Kedzie Ave.,,Chicago,IL,60651,(773) 772-7170 x. 3102,,,,,,,,,,,,,,,,,,,,http://www.associationhouse.org,M-F: 9AM-9PM,No,TRUE,FALSE,TRUE
,Austin CTC,Community Technology Center,4943 W. Quincy,,Chicago,IL,60644,(773) 626-5685,,,,,,,,,,,,,,,,,,,,http://www.mercyhousing.org,M-W: 8:30AM-6:30PM; TH: 10AM-8PM; F: 8:30AM-6:30PM; SA: 8:30AM-5PM,,TRUE,FALSE,TRUE
,Back of the Yards Neighborhood Council CTC,Community Technology Center,"1751 W 47th Street, 2nd Floor",,Chicago,IL,60609,(773) 523-4416,,,,,,,,,,,,,,,,,,,,http://www.bync.org,M-F: 9AM-7PM,,TRUE,TRUE,TRUE
,BP Technology Center,Community Technology Center,1701 W. Superior St.,,Chicago,IL,60622,(312) 563-5800,,,,,,,,,,,,,,,,,,,,http://www.eriehouse.org,M-F: 9AM-9PM; SA: 9AM-1PM,No,TRUE,TRUE,TRUE
,CAPs - Kedzie,Community Technology Center,"7723 South Kedzie, Suite D&E",,Chicago,IL,60653,(773) 863-5089,,,,,,,,,,,,,,,,,,,,http://www.capsinc.org,M-F: 8AM-5PM,Yes,TRUE,FALSE,TRUE
,CAPs - Roseland,Community Technology Center,11444 South Halsted,,Chicago,IL,60628,(773) 568-1782,,,,,,,,,,,,,,,,,,,,http://www.capsinc.org,M-F: 8AM-5PM,No,TRUE,FALSE,TRUE
,Career Pathways Resource Center,Community Technology Center,950 East 61st Street,,Chicago,IL,60637,(773) 752-0687,,,,,,,,,,,,,,,,,,,,http://www.thecaraprogram.org,M-F: 9AM-5PM,,TRUE,FALSE,TRUE
,Career Resource Center,Community Technology Center,790 N. Milwaukee Ave.,,Chicago,IL,60642,(312) 432-1300,,,,,,,,,,,,,,,,,,,,http://www.gwtp.org,M-F: 8:30AM-4:30PM,No,TRUE,TRUE,TRUE
,Carlos Fuentes School,Community Technology Center,2845 W Barry,,Chicago,IL,60618,(312) 432-6301,,,,,,,,,,,,,,,,,,,,http://unocharterschools.org/uscn_campuses.aspx,M-TH: 5PM-8PM,,TRUE,TRUE,TRUE
,Casa Central,Community Technology Center,1335 N. California,,Chicago,IL,60622,(773) 645-2300,,,,,,,,,,,,,,,,,,,,http://www.casacentral.org/,M: 12PM-7PM; TU: 10AM-7PM; W: 1PM-7PM; TH: 10AM-12PM & 3PM-7PM; SA: 10AM-2:30PM,No,TRUE,FALSE,TRUE
,Center for Working Families (The Cara Program),Community Technology Center,4804 - 4806 South Cottage Grove Avenue,,Chicago,IL,60615,(773) 924-2205,,,,,,,,,,,,,,,,,,,,http://www.thecaraprogram.org,M-F: 9AM-5PM,,TRUE,FALSE,TRUE
,Centro Romero,Community Technology Center,6216 N. Clark St,,Chicago,IL,60660,(773) 508-5300,,,,,,,,,,,,,,,,,,,,http://www.centroromero.org,Call for hours,Yes,TRUE,TRUE,TRUE
,Charles Hayes Center,Community Technology Center,4859 S. Wabash Ave,,Chicago,IL,60615,,,,,,,,,,,,,,,,,,,,,http://www.cha.terau.com,M-F: 9AM-4PM,No,TRUE,FALSE,TRUE
,Chesterfield Community Council,Community Technology Center,651 E 88th Street,,Chicago,IL,60619,773-651-3958,,,,,,,,,,,,,,,,,,,,http://www.chesterfieldcommunitycouncil.org/,M-F: 8:30AM-4PM,Yes,TRUE,TRUE,TRUE
,Chicago Commons ETC,Community Technology Center,3441 W. Chicago Ave,,Chicago,IL,60651,(773) 826-0739,,,,,,,,,,,,,,,,,,,,http://www.chicagocommons.org/,M-F: 9AM-5PM,No,TRUE,FALSE,TRUE
,Chicago Workforce Center - Pilsen,Community Technology Center,1657 S. Blue Island Avenue,,Chicago,IL,60607,(312) 256-5716,,,,,,,,,,,,,,,,,,,,http://www.nationalable.org,M-F: 9AM-4PM,,TRUE,FALSE,TRUE
,Chinese American Service League,Community Technology Center,2141 S. Tan Court,,Chicago,IL,60616,(312) 791-0418,,,,,,,,,,,,,,,,,,,,http://www.caslservice.org,M-F: 9AM-5PM,No,TRUE,TRUE,TRUE
,Chinese Mutual Aid Association,Community Technology Center,1016 W Argyle St,,Chicago,IL,60640,(773) 784-2900,,,,,,,,,,,,,,,,,,,,http://www.chinesemutualaid.org,M-F: 10AM-6PM; SA: 9AM-2PM,No,TRUE,FALSE,TRUE
,Cleanslate (The Cara Program),Community Technology Center,1334 South Ashland,,Chicago,IL,60608,(312) 226-6361,,,,,,,,,,,,,,,,,,,,http://www.thecaraprogram.org,M-F: 7:30AM-3:30PM,,TRUE,FALSE,TRUE
,Community Job Training and Education Center,Community Technology Center,2021 W. Fulton Ave.,,Chicago,IL,60622,(312) 563-9028,,,,,,,,,,,,,,,,,,,,http://www.gwtp.org,M-F: 8:30AM-4:30PM,No,TRUE,TRUE,TRUE
,Community TV Network Youth Media Ctr.,Community Technology Center,2418 West Bloomingdale,,Chicago,IL,60647,(773) 278-8500,,,,,,,,,,,,,,,,,,,,http://www.ctvnetwork.org,M-F: 3PM-7PM,No,TRUE,TRUE,TRUE
,Continental Plaza CTC,Community Technology Center,1330 W. 76th St.,,Chicago,IL,60620,(773) 487-3300,,,,,,,,,,,,,,,,,,,,http://www.hhdc.org,T-TH: 10AM-7:30PM; F: 12:30PM-4:30PM,No,TRUE,FALSE,TRUE
,CRDDC Technology Center,Community Technology Center,25 N. Cicero Avenue,,Chicago,IL,60644,(773) 261-6098,,,,,,,,,,,,,,,,,,,,http://www.CRDDC.net,M-F: 9AM-5PM,No,TRUE,TRUE,TRUE
,Dr. David J. Lochman Cyber Center,Community Technology Center,3656 N Halsted St,,Chicago,IL,60613,(773) 472-6469,,,,,,,,,,,,,,,,,,,,http://www.centeronhalsted.org/,M-TU: 12:30PM-7:30PM; W-TH: 9:30AM-7:30PM; F: 9:30AM-5:30PM; SA-SU: 10AM-5:30PM,Yes,TRUE,TRUE,TRUE
,Employment Resource Center,Community Technology Center,1623 W. Howard,,Chicago,IL,60626,(773) 262-3515,,,,,,,,,,,,,,,,,,,,http://www.howardarea.org,M-F: 9AM-5PM; SA: 9AM-1PM,No,TRUE,FALSE,TRUE
,Erie Little Village Technology Center,Community Technology Center,4225 W. 25th. St.,,Chicago,IL,60623,(773) 542-7705,,,,,,,,,,,,,,,,,,,,http://www.eriehouse.org,M-F: 9AM-8PM,No,TRUE,TRUE,TRUE
,Erie Neighborhood House,Community Technology Center,1347 W. Erie St.,,Chicago,IL,60642,(312) 666-3430,,,,,,,,,,,,,,,,,,,,http://www.eriehouse.org,M-F: 9AM-9PM; SA: 9AM-1PM,Yes,TRUE,TRUE,TRUE
,FORUM,Community Technology Center,200 E 75th Street,,Chicago,IL,60619,(773) 994-9200,,,,,,,,,,,,,,,,,,,,http://www.forumdigital.org/chicago/,M-F: 8AM-9PM; SA: 8AM-1PM,Yes,TRUE,TRUE,TRUE
,Germano Millgate CTC,Community Technology Center,8732 South Burley,,Chicago,IL,60617,(773) 221-2210,,,,,,,,,,,,,,,,,,,,http://www.cohd.com/,"M, W: 11AM-5PM; TU, TH: 1PM-5PM",No,TRUE,FALSE,TRUE
,Goodwill Industries of Metropolitan Chicago,Community Technology Center,819 S. Wabash,,Chicago,IL,60605,(312) 212-1290,,,,,,,,,,,,,,,,,,,,http://www.goodwillchicago.com/page.asp?dbID=78,M-F: 8:30AM-4PM,Yes,TRUE,FALSE,TRUE
,Goodwill Industries of Metropolitan Chicago,Community Technology Center,2435 W. 63rd Street,,Chicago,IL,60629,(312) 212-1290,,,,,,,,,,,,,,,,,,,,http://www.goodwillchicago.com/page.asp?dbID=78,M-F: 8:30AM-4PM,No,TRUE,FALSE,TRUE
,Guild for the Blind,Community Technology Center,180 N. Michigan Avenue Suite 1700,,Chicago,IL,60601,(312) 236-8569,,,,,,,,,,,,,,,,,,,,http://www.guildfortheblind.org,M-F: 8:30AM-4:30PM,No,TRUE,FALSE,TRUE
,Harold Washington CTC,Community Technology Center,4946 W. Sheridan,,Chicago,IL,60640,(312) 447-4601,,,,,,,,,,,,,,,,,,,,http://www.mercyhousing.org,M-F: 9AM to 5PM,,TRUE,FALSE,TRUE
,Hispanic Housing Development Corporation,Community Technology Center,2610 W. North Ave,,Chicago,IL,60647,(773) 862-1892,,,,,,,,,,,,,,,,,,,,http://www.hispanichousingdevelopment.com/opportunities/workforce.html,M-F: 9AM-5PM,No,TRUE,FALSE,TRUE
,Holland CTC,Community Technology Center,240 W. 107th Place,,Chicago,IL,60628,(312) 447-4630,,,,,,,,,,,,,,,,,,,,http://www.mercyhousing.org,M-TH: 9AM-2PM,,TRUE,FALSE,TRUE
,IMAN (Inner-City Muslim Action Network),Community Technology Center,2744 W. 63rd Street,,Chicago,IL,60629,(773) 434-4626,,,,,,,,,,,,,,,,,,,,http://www.imancentral.org,M-TH: 9AM-5PM,No,TRUE,FALSE,TRUE
,Industrial Council of Nearwest Chicago (ICNC),Community Technology Center,2010 W. Fulton St.  Suite 280,,Chicago,IL,60612,(312) 421-3941,,,,,,,,,,,,,,,,,,,,http://www.industrialcouncil.com/,M-F: 10AM-3PM,Yes,TRUE,FALSE,TRUE
,Instituto del Progreso Latino (Back of the Yards Site),Community Technology Center,4600 S. Wood Street,,Chicago,IL,60609,(773) 927-7712,,,,,,,,,,,,,,,,,,,,http://www.idpl.org,M-F: 9AM-5PM,No,TRUE,FALSE,TRUE
,Instituto del Progreso Latino (Main Site - Pilsen),Community Technology Center,2570 S. Blue Island Avenue,,Chicago,IL,60608,(773) 890-0055,,,,,,,,,,,,,,,,,,,,http://www.idpl.org,M-F: 8AM-9:30PM,No,TRUE,FALSE,TRUE
,Instituto del Progreso Latino (Saint. Michaels Site),Community Technology Center,2315 W. 24th Place,,Chicago,IL,60608,(773) 890-0055,,,,,,,,,,,,,,,,,,,,http://www.idpl.org,M-F: 8:30AM-9:30PM,Yes,TRUE,FALSE,TRUE
,Interfaith Refugee & Immigration Ministries,Community Technology Center,"4753 N. Broadway, Suite 815",,Chicago,IL,60640,(773) 989-5647,,,,,,,,,,,,,,,,,,,,http://www.irim.org,M-F: 8AM-4:30PM,No,TRUE,FALSE,TRUE
,Jane Addams Hull House Association,Community Technology Center,1030 West Van Buren Street,,Chicago,IL,60607,(312) 235-7004,,,,,,,,,,,,,,,,,,,,http://www.hullhouse.org,M-F: 9AM-5PM,No,TRUE,FALSE,TRUE
,Jane Addams Hull House Association,Community Technology Center,5797 North Lincoln Avenue,,Chicago,IL,60659,(773) 506-0293,,,,,,,,,,,,,,,,,,,,http://www.hullhouse.org,M-F: 9AM-5PM,No,TRUE,FALSE,TRUE
,Jane Addams Hull House Association,Community Technology Center,1937 West Irving Park,,Chicago,IL,60613,(773) 348-1866,,,,,,,,,,,,,,,,,,,,http://www.hullhouse.org,M-F: 9AM-5PM,No,TRUE,FALSE,TRUE
,Jane Addams Resource Corporation Main CTC,Community Technology Center,"4432 N. Ravenswood, Chicago, IL",,Chicago,IL,60640,(773) 728-9769 x. 19,,,,,,,,,,,,,,,,,,,,http://www.jane-addams.org,M-SA: 9AM-9:30PM (Classes); Call for Open Lab hours,No,TRUE,FALSE,TRUE
,Jane Addams Resource Corporation Training CTC Satellite,Community Technology Center,"4222 N. Ravenswood, Chicago, IL",,Chicago,IL,60613,(773) 728-9769 x. 19,,,,,,,,,,,,,,,,,,,,http://www.jane-addams.org,M-F: 9AM-5PM,No,TRUE,FALSE,TRUE
,Jewish Vocational Service CTC,Community Technology Center,6526 N. California,,Chicago,IL,60645,(773) 743-5638,,,,,,,,,,,,,,,,,,,,http://www.jvschicago.org,M-F: 9AM-8:30PM,Yes,TRUE,TRUE,TRUE
,Jobs For Youth Chicago,Community Technology Center,"17 North State Street, Sixth Floor",,Chicago,IL,60602,(312) 499-4778,,,,,,,,,,,,,,,,,,,,http://www.jfychicago.org,M-F: 9AM-5PM,No,TRUE,FALSE,FALSE
,Knowledge Hook Up,Community Technology Center,3457 East 106th Street,,Chicago,IL,60617,(773) 221-9111,,,,,,,,,,,,,,,,,,,,http://www.knowledgehookup.org,M-F: 9AM-4PM,No,TRUE,TRUE,TRUE
,"Korean American Community Services, Inc.",Community Technology Center,4300 N. California Ave,,Chicago,IL,60618,(773) 583-5501,,,,,,,,,,,,,,,,,,,,http://www.kacschgo.org,M-F: 9AM-5PM,Yes,TRUE,TRUE,TRUE
,La Casa Norte,Community Technology Center,3533 W. North Ave.,,Chicago,IL,60647,(773) 276-4900 x. 211,,,,,,,,,,,,,,,,,,,,http://www.lacasanorte.org,M-F: 9AM-7PM,No,TRUE,FALSE,TRUE
,Lake Grove Village CTC,Community Technology Center,3515 South Cottage Grove,,Chicago,IL,60653,(773) 538-4671,,,,,,,,,,,,,,,,,,,,http://www.cohd.com/,"M, W: 11AM-5PM; TU, TH: 1PM-5PM",No,TRUE,TRUE,TRUE
,Lawndale Christian Development Corporation,Community Technology Center,3843 W. Ogden Ave,,Chicago,IL,60623,(773) 762-8889,,,,,,,,,,,,,,,,,,,,http://www.lcdc.net,M-F: 9AM-5PM,No,TRUE,FALSE,TRUE
,"LEED Council, Community Technology Center",Community Technology Center,1866 N. Marcey Street,,Chicago,IL,60614,(773) 929-5552 x. 230,,,,,,,,,,,,,,,,,,,,http://www.leedcouncil.org,"M-TH: 9AM-6:30PM; TU, TH 6:30PM-9PM; F: 9AM-5PM; SA: 10:30AM-4PM",No,TRUE,FALSE,TRUE
,Literacy Volunteers of Illinois - Kedzie Center,Community Technology Center,"1116 N. Kedzie, Suite 528",,Chicago,IL,60651,(773) 235-0915,,,,,,,,,,,,,,,,,,,,http://www.literacyvolunteersillinois.org/northsideprograms.asp,M-F: 8:30AM-4:30PM,Yes,TRUE,FALSE,TRUE
,Lowden Homes,Community Technology Center,200 W. 95th Street,,Chicago,IL,60620,,,,,,,,,,,,,,,,,,,,,http://www.cha.terau.com,"M, W, F: 10AM-6PM",Yes,TRUE,FALSE,TRUE
,Lumity,Community Technology Center,"29 E. Madison St., Ste. 1005",,Chicago,IL,60602,(312) 372-4872,,,,,,,,,,,,,,,,,,,,http://www.lumity.org,M-F: 9AM-5PM,No,TRUE,FALSE,TRUE
,MatherÂs More Than a CafÃ© (Central),Community Technology Center,3235 N. Central Ave,,Chicago,IL,60634,(773) 205-3300,,,,,,,,,,,,,,,,,,,,http://www.matherlifeways.org/iyc_wherearematherscafes.asp,M-F: 8AM-4PM,,TRUE,FALSE,TRUE
,Mather's More Than a Cafe (83rd Street),Community Technology Center,33 E. 83rd Street,,Chicago,IL,60619,(773) 488-2801,,,,,,,,,,,,,,,,,,,,http://www.matherlifeways.org/iyc_wherearematherscafes.asp,M-F: 8:30AM-4:30PM; SA: 8AM-2PM,,TRUE,FALSE,TRUE
,Mather's More Than a Cafe (Higgins),Community Technology Center,7134 W. Higgins,,Chicago,IL,60656,(773) 774-4804,,,,,,,,,,,,,,,,,,,,http://www.matherlifeways.org/iyc_mathersmorethanacafe.asp,M-TH: 7:30AM-3:30PM; F: 7:30AM-7:00PM; SA: 9AM-2PM,,TRUE,FALSE,TRUE
,National Able Network,Community Technology Center,180 North Wabash Room 600-02,,Chicago,IL,60601,(312) 580-0389,,,,,,,,,,,,,,,,,,,,http://www.nationalable.org,M-F: 9AM-4PM,,TRUE,FALSE,TRUE
,NTRC Homan Square,Community Technology Center,3517 W. Arthington St.,,Chicago,IL,60624,(773) 722-5653,,,,,,,,,,,,,,,,,,,,http://community.homansquare.org/content/page.php?cat=5&content_id=24,M-F: 10AM-6PM,,TRUE,TRUE,TRUE
,OAI CTC,Community Technology Center,180 N Wabash Ave.  Suite 400,,Chicago,IL,60601,(312) 528-3501,,,,,,,,,,,,,,,,,,,,http://www.oaiinc.org,M-F: 8:30AM-4PM,,TRUE,TRUE,TRUE
,Officer Donald J. Marquez School,Community Technology Center,2916 W. 47th St.,,Chicago,IL,60632,(312) 432-6301,,,,,,,,,,,,,,,,,,,,http://unocharterschools.org/uscn_campuses.aspx,M-TH: 5PM-8PM,,TRUE,TRUE,TRUE
,Onward Neighborhood House,Community Technology Center,5423 W. Diversey Avenue,,Chicago,IL,60639,(312) 666-6726,,,,,,,,,,,,,,,,,,,,http://www.onwardhouse.org/,M-TH: 9AM-8PM; F: 12PM-8PM,,TRUE,FALSE,TRUE
,Poder Learning Center,Community Technology Center,1637 S. Allport St.,,Chicago,IL,60608,(312) 226-2002,,,,,,,,,,,,,,,,,,,,http://www.poderlc.org/,M-TH: 7:30AM-8:30PM; F: 7:30AM-5PM,,TRUE,FALSE,TRUE
,Polish American Association,Community Technology Center,3815 N. Cicero Ave,,Chicago,IL,60641,(773) 282-1122,,,,,,,,,,,,,,,,,,,,http://www.polish.org,"TU, TH: 9AM-6PM; W, F: 1PM-7PM; SA: 9AM-5PM",,TRUE,FALSE,TRUE
,Pui Tak Center,Community Technology Center,2216 S. Wentworth Avenue,,Chicago,IL,60616,(312) 328-1188,,,,,,,,,,,,,,,,,,,,http://www.puitak.org,M-TH: 8:30AM-7PM; F: 9AM-5PM; SA: 8:30AM-12:30PM,,TRUE,FALSE,TRUE
,Resurrection Lutheran Church,Community Technology Center,9349 S. Wentworth Avenue,,Chicago,IL,60620,(773) 928-6312,,,,,,,,,,,,,,,,,,,,http://resurrectionlutheranschool.com/,M-TH: 2PM-6PM,No,TRUE,TRUE,TRUE
,Rogers Park Computer Lab and Technology Center,Community Technology Center,1557 W. Howard,,Chicago,IL,60626,(773) 508-5885,,,,,,,,,,,,,,,,,,,,http://www.rogers-park.com,M-F: 9AM-5PM,Yes,TRUE,TRUE,TRUE
,Rufino Tamayo School (housed at St. Simon the Apostle Parish),Community Technology Center,5157 S. California,,Chicago,IL,60632,(312) 432-6301,,,,,,,,,,,,,,,,,,,,http://unocharterschools.org/uscn_campuses.aspx,W: 1PM-3PM; T-TH: 9AM-1PM & 5PM-9PM,,TRUE,TRUE,TRUE
,SER Little Village CTC,Community Technology Center,"3948 W. 26th Street, Suite 213",,Chicago,IL,60623,(773) 542-9030 x. 226,,,,,,,,,,,,,,,,,,,,http://www.centralstatesser.org,M-F: 8AM-6PM; SA: 9AM-12PM,No,TRUE,TRUE,TRUE
,South Loop CTC,Community Technology Center,1521 S. Wabash Ave,,Chicago,IL,60605,(312) 447-4681,,,,,,,,,,,,,,,,,,,,http://www.mercyhousing.org,M-F: 9AM-5PM,,TRUE,FALSE,TRUE
,Southeast Chicago Development Commission,Community Technology Center,2938 East 91st Street,,Chicago,IL,60617,(773) 731-8755,,,,,,,,,,,,,,,,,,,,http://www.southeastchicago.org/,M-F: 8AM-5PM; SA: 9AM-1PM,,TRUE,FALSE,TRUE
,St. Agatha Family Empowerment,Community Technology Center,3143 W. Douglas Boulevard,,Chicago,IL,60623,(773) 522-1354,,,,,,,,,,,,,,,,,,,,http://www.chicagoareaproject.org/,M-F: 12PM-6PM; SA: 10AM-1PM,,TRUE,TRUE,TRUE
,Street-Level Youth Media,Community Technology Center,2459 W. Augusta Blvd.,,Chicago,IL,60622,(773) 862-5331,,,,,,,,,,,,,,,,,,,,http://www.street-level.org,M-F: 3PM-6PM,,TRUE,TRUE,TRUE
,Sunshine Gospel Ministries,Community Technology Center,500 East 61st Street,,Chicago,IL,60637,(773) 493-0656 x. 1010,,,,,,,,,,,,,,,,,,,,http://www.sunshinegospel.org,M-F: 10AM-4PM,,TRUE,FALSE,TRUE
,The Cara Program (East Loop Campus),Community Technology Center,228 South Wabash,,Chicago,IL,60604,(312) 798-3327,,,,,,,,,,,,,,,,,,,,http://www.thecaraprogram.org,M-F: 9AM-5PM,,TRUE,FALSE,TRUE
,The Cara Program (West Loop Campus),Community Technology Center,703 West Monroe,,Chicago,IL,60661,(312) 798-3300,,,,,,,,,,,,,,,,,,,,http://www.thecaraprogram.org,M-F: 9AM-5PM,,TRUE,FALSE,TRUE
,Veterans Memorial High School,Community Technology Center,4248 W 47th St,,Chicago,IL,60632,(312) 432-6301,,,,,,,,,,,,,,,,,,,,http://unocharterschools.org/uscn_campuses.aspx,M-TH: 5PM-8PM,,TRUE,TRUE,TRUE
,Wentworth Commons CTC,Community Technology Center,11045 S. Wentworth Ave,,Chicago,IL,60628,(312) 447-4640,,,,,,,,,,,,,,,,,,,,http://www.mercyhousing.org,"M, W, F: 9AM-4PM; TU, TH: 10AM-6PM; SA: 2PM-6PM",,TRUE,FALSE,TRUE
,Westside Youth Technical Entrepreneur Center,Community Technology Center,4211-13 West Madison,,Chicago,IL,60624,(773) 533-3500,,,,,,,,,,,,,,,,,,,,http://www.WYTEC4213.org,M-F: 11AM-7PM,,TRUE,TRUE,TRUE
,WHA-Business and Human Resource Center,Community Technology Center,4800 West Chicago Avenue,,Chicago,IL,60651,(773) 786-0148,,,,,,,,,,,,,,,,,,,,http://www.healthauthority.org,M-F: 7AM-7PM,,TRUE,FALSE,TRUE
,WHA-Community Tech Center,Community Technology Center,5417 West Division Street,,Chicago,IL,60651,(773) 378-1878,,,,,,,,,,,,,,,,,,,,http://www.healthauthority.org,M-F: 9AM-8PM,,TRUE,TRUE,TRUE
,WHA-Youth Technology Center,Community Technology Center,5437 West Division Street,,Chicago,IL,60651,(773) 378-5034,,,,,,,,,,,,,,,,,,,,http://www.healthauthority.org,M-F: 9AM-7PM,,TRUE,TRUE,TRUE
,Workforce Development Office CTC,Community Technology Center,2610 W. North Ave. 2nd Flr.,,Chicago,IL,60647,(773) 862-1892,,,,,,,,,,,,,,,,,,,,http://www.hhdc.org,M-TH: 9AM-7:30PM; F: 12:30PM-4:30PM,Yes,TRUE,FALSE,TRUE
,YWCA Parks Francis Community Technology Center,Community Technology Center,6600 S. Cottage Grove,,Chicago,IL,60637,(773) 496-5619,,,,,,,,,,,,,,,,,,,,http://www.ywcachicago.org,M-F: 9AM-8PM,,TRUE,TRUE,TRUE
,63rd Street Corridor CWF Metropolitan Family Services,FamilyNet Center,"747 W. 63rd St., Bldg. V, Room 106",,Chicago,IL,60621,(773) 487-3723,,,,,,,,,,,,,,,,,,,,http://www.englewoodportal.org,M-F: 9AM - 6PM; SA: 10AM - 2PM (Open 1st and 3rd Sat of each month),yes,TRUE,FALSE,TRUE
,Association House,FamilyNet Center,1116 N. Kedzie Ave,,Chicago,IL,60657,"(773) 772-7170, x. 3103",,,,,,,,,,,,,,,,,,,,http://www.humboldtparkportal.org,M-F: 9a -5p; Sat 9a - 2p,yes,TRUE,FALSE,TRUE
,Chicago Commons,FamilyNet Center,3441 W. Chicago Ave,,Chicago,IL,60651,(773) 826-0739,,,,,,,,,,,,,,,,,,,,http://www.humboldtparkportal.org,M-F 9a -5p,yes,TRUE,FALSE,TRUE
,Instituto Del Progreso,FamilyNet Center,2570 S. Blue Island,,Chicago,IL,60608,(773) 890-0055,,,,,,,,,,,,,,,,,,,,http://www.pilsenportal.org,"M, T, W, F: 8AM-5PM; TH 8AM -7PM; SA, SU: Closed",yes,TRUE,FALSE,TRUE
,Southwest REACH Center,FamilyNet Center,6155 S. Pulaski Rd.,,Chicago,IL,60629,(773) 735-6727,,,,,,,,,,,,,,,,,,,,http://www.chicagolawnportal.org,"M-F: 9AM - 5PM; SA, SU: Closed",yes,TRUE,FALSE,TRUE
,St. Sabina Employment Resource Center,FamilyNet Center,7909 S. Racine St.,,Chicago,IL,60620,(773) 347-0024,,,,,,,,,,,,,,,,,,,,http://www.auburngreshamportal.org,"M, T: 9AM-5PM; W, TH, F: 9AM -8PM; SA 9AM - 1PM; SU: Closed",yes,TRUE,FALSE,TRUE
,Abbot Park Satellite Center,Senior Center,49 E. 95th St.,,Chicago,IL,60619,(312) 745-3493,,,,,,,,,,,,,,,,,,,,http://www.cityofchicago.org/city/en/depts/fss/supp_info/satellite_centerinformation.html,M-F: 8:30AM-4:30PM; SA-SU: Closed,Yes,FALSE,FALSE,TRUE
,Auburn Gresham Satellite Center,Senior Center,1040 W. 79th St.,,Chicago,IL,60620,(312) 745-4798,,,,,,,,,,,,,,,,,,,,http://www.cityofchicago.org/city/en/depts/fss/provdrs/senior/svcs/regional_senior_centers.html,Call for hours,Yes,FALSE,FALSE,TRUE
,Austin Satellite Center,Senior Center,5071 W. Congress Pkwy,,Chicago,IL,60644,(312) 743-1538,,,,,,,,,,,,,,,,,,,,http://www.cityofchicago.org/city/en/depts/fss/supp_info/satellite_centerinformation.html,M-F: 8:30AM-4:30PM; SA-SU: Closed,Yes,FALSE,FALSE,TRUE
,Central West Center,Senior Center,2102 W. Ogden,,Chicago,IL,60612,(312) 746-5300 (Voice) or (312) 746-0321 (TTY),,,,,,,,,,,,,,,,,,,,http://www.cityofchicago.org/city/en/depts/fss/supp_info/regional_center_information.html,Call for hours,No,TRUE,FALSE,TRUE
,Chatham Satellite Center,Senior Center,8300 S. Cottage Grove,,Chicago,IL,60619,(312) 745-0385,,,,,,,,,,,,,,,,,,,,http://www.cityofchicago.org/city/en/depts/fss/supp_info/satellite_centerinformation.html,M-F: 8:30AM-4:30PM; SA-SU: Closed,Yes,TRUE,FALSE,TRUE
,Englewood Satellite Center,Senior Center,653 W. 63rd St.,,Chicago,IL,60621,(312) 745-3328,,,,,,,,,,,,,,,,,,,,http://www.cityofchicago.org/city/en/depts/fss/supp_info/satellite_centerinformation.html,M-F: 8:30AM-4:30PM; SA-SU: Closed,Yes,TRUE,FALSE,TRUE
,Garfield Ridge Satellite Center,Senior Center,5674 S. Archer Ave,,Chicago,IL,60638,(312) 745-4250,,,,,,,,,,,,,,,,,,,,http://www.cityofchicago.org/city/en/depts/fss/supp_info/satellite_centerinformation.html,M-F: 8:30AM-3PM; SA-SU: Closed,Yes,TRUE,FALSE,TRUE
,North Center Satellite Center,Senior Center,4040 N. Oakley Ave,,Chicago,IL,60618,(312) 745-4029,,,,,,,,,,,,,,,,,,,,http://www.cityofchicago.org/city/en/depts/fss/supp_info/satellite_centerinformation.html,Call,Yes,TRUE,FALSE,TRUE
,Northeast (Levy) Senior Center,Senior Center,2019 W. Lawrence Avenue,,Chicago,IL,60625,Mike Toma at (312) 742-2630 or Court Chilton at (312) 742-2623,,,,,,,,,,,,,,,,,,,,http://www.cityofchicago.org/city/en/depts/fss/supp_info/regional_center_information.html,Call,No,TRUE,FALSE,TRUE
,Northwest (Copernicus) Senior Center,Senior Center,3160 N. Milwaukee Avenue,,Chicago,IL,60618,(312) 744-6681 (Voice) or (312) 744-0321 (TTY),,,,,,,,,,,,,,,,,,,,http://www.cityofchicago.org/city/en/depts/fss/supp_info/regional_center_information.html,Call,No,TRUE,FALSE,TRUE
,Portage Park Satellite Center,Senior Center,4100 N. Long,,Chicago,IL,60641,(312) 744-9022,,,,,,,,,,,,,,,,,,,,http://www.cityofchicago.org/city/en/depts/fss/supp_info/satellite_centerinformation.html,M-F: 8:30AM-4:30PM; SA-SU: Closed,Yes,TRUE,FALSE,TRUE
,Renaissance Court,Senior Center,78 E. Washington,,Chicago,IL,60602,(312) 744-4550 (Voice) or (312) 744-6777 (TTY),,,,,,,,,,,,,,,,,,,,http://www.cityofchicago.org/city/en/depts/fss/supp_info/regional_center_information.html,Call,No,TRUE,FALSE,TRUE
,Southeast Center (Atlas),Senior Center,1767 E. 79th St.,,Chicago,IL,60649,(312) 747-0189 (Voice) or (312) 746-0322 (TTY),,,,,,,,,,,,,,,,,,,,http://www.cityofchicago.org/city/en/depts/fss/supp_info/regional_center_information.html,Call,No,TRUE,FALSE,TRUE
,Southwest Center,Senior Center,6117 S. Kedzie,,Chicago,IL,60629,(312) 747-0440 (Voice) or (312) 746-0323 (TTY),,,,,,,,,,,,,,,,,,,,http://www.cityofchicago.org/city/en/depts/fss/supp_info/regional_center_information.html,Call,No,TRUE,FALSE,TRUE
,West Town Satellite Center,Senior Center,1613 W. Chicago Ave.,,Chicago,IL,60622,(312) 743-1016,,,,,,,,,,,,,,,,,,,,http://www.cityofchicago.org/city/en/depts/fss/supp_info/satellite_centerinformation.html,M-F: 9AM-4PM; SA-SU: Closed,Yes,TRUE,FALSE,TRUE
,Center for Green Technology,Wireless Internet Zone,445 N. Sacramento Boulevard,,Chicago,IL,60612,NA,,,,,,,,,,,,,,,,,,,,http://www.cityofchicago.org/city/en/depts/doe/provdrs/ccgt.html,Wireless access is available 24 hours a day 7 days a week.,No,FALSE,TRUE,FALSE
,Chicago Cultural Center,Wireless Internet Zone,78 E Washington Street,,Chicago,IL,60602,NA,,,,,,,,,,,,,,,,,,,,http://www.cityofchicago.org/city/en/depts/doit/supp_info/wireless_internetzones.html,Wireless access is available 24 hours a day 7 days a week.,No,FALSE,TRUE,FALSE
,Daley Center Plaza,Wireless Internet Zone,50 W. Washington Street,,Chicago,IL,60602,NA,,,,,,,,,,,,,,,,,,,,http://www.cityofchicago.org/city/en/depts/doit/supp_info/wireless_internetzones.html,Wireless access is available 24 hours a day 7 days a week.,No,FALSE,TRUE,FALSE
,Federal Plaza,Wireless Internet Zone,230 S. Dearborn Street,,Chicago,IL,60603,NA,,,,,,,,,,,,,,,,,,,,http://www.cityofchicago.org/city/en/depts/doit/supp_info/wireless_internetzones.html,Wireless access is available 24 hours a day 7 days a week.,No,FALSE,TRUE,FALSE
,Gallery 37,Wireless Internet Zone,66 E Randolph Street,,Chicago,IL,60601,NA,,,,,,,,,,,,,,,,,,,,http://www.cityofchicago.org/city/en/depts/doit/supp_info/wireless_internetzones.html,Wireless access is available 24 hours a day 7 days a week.,No,FALSE,TRUE,FALSE
,Millennium Park,Wireless Internet Zone,55 N Michigan Avenue,,Chicago,IL,60602,NA,,,,,,,,,,,,,,,,,,,,http://www.cityofchicago.org/city/en/depts/doit/supp_info/wireless_internetzones.html,Wireless access is available 24 hours a day 7 days a week.,No,FALSE,TRUE,FALSE
,Thompson Center Plaza,Wireless Internet Zone,100 W. Randolph Street,,Chicago,IL,60601,NA,,,,,,,,,,,,,,,,,,,,http://www.cityofchicago.org/city/en/depts/doit/supp_info/wireless_internetzones.html,Wireless access is available 24 hours a day 7 days a week.,No,FALSE,TRUE,FALSE
,CARES Chicago,WorkForce Center,"3333 W. Arthington, Suite 139",,Chicago,IL,60624,(773) 265-3300,,,,,,,,,,,,,,,,,,,,http://www.careschicago.org/,Call,NA,TRUE,FALSE,TRUE
,Chicago Career Center,WorkForce Center,11000 S. Michigan,,Chicago,IL,60628,(773) 233-4364,,,,,,,,,,,,,,,,,,,,http://www.southeastchicago.com/,Call,NA,TRUE,FALSE,TRUE
,Chicago Federation of Labor,WorkForce Center,130 W. Randolph,,Chicago,IL,60601,(312) 565-9431,,,,,,,,,,,,,,,,,,,,http://www.chicagolabor.org/,Call,NA,TRUE,FALSE,TRUE
,Chicago Workforce Center - Garfield,WorkForce Center,"10 S. Kedzie, Room 134",,Chicago,IL,60612,(773) 722-3885 (Voice or (773) 722-6081(TTY),,,,,,,,,,,,,,,,,,,,http://www.cityofchicago.org/city/en/depts/fss/supp_info/chicago_workforcecenters-servicesforjobseekers.html,M-TH: 9AM (Orientation),Yes,TRUE,FALSE,TRUE
,Chicago Workforce Center - Mid-South,WorkForce Center,4314 S. Cottage Grove,,Chicago,IL,60653,(773) 538-5627 (Voice) or (773) 538-8260 (TTY),,,,,,,,,,,,,,,,,,,,http://www.cityofchicago.org/city/en/depts/fss/supp_info/chicago_workforcecenters-servicesforjobseekers.html,M-TH: 8:45AM (Orientation),Yes,TRUE,FALSE,TRUE
,Chicago Workforce Center - Northside,WorkForce Center,4740 N. Sheridan,,Chicago,IL,60640,(773) 334-4747 (Voice) or (773) 334-9804 (TTY),,,,,,,,,,,,,,,,,,,,http://www.cityofchicago.org/city/en/depts/fss/supp_info/chicago_workforcecenters-servicesforjobseekers.html,M-TH: 9AM (Orientation),Yes,TRUE,FALSE,TRUE
,Chicago Workforce Center - Southwest,WorkForce Center,"7500 S. Pulaski, Bldg 100",,Chicago,IL,60652,(773) 884-7000 (Voice) or (773) 884-0269 (TTY),,,,,,,,,,,,,,,,,,,,http://www.cityofchicago.org/city/en/depts/fss/supp_info/chicago_workforcecenters-servicesforjobseekers.html,M-TH: 8:30AM (Orientation),Yes,TRUE,FALSE,TRUE
,Greater West Town Development Corporation,WorkForce Center,790 N. Milwaukee,,Chicago,IL,60622,(312) 432-1300,,,,,,,,,,,,,,,,,,,,http://www.gwtp.org/programs.html,Call,NA,TRUE,FALSE,TRUE
,Heartland Human Care Services,WorkForce Center,"3500 S. Lake Park, 1 West",,Chicago,IL,60653,(312) 660-1890 x. 6421,,,,,,,,,,,,,,,,,,,,http://www.heartlandalliance.org/,Call,NA,TRUE,FALSE,TRUE
,Howard Area Community Center,WorkForce Center,1623 W. Howard,,Chicago,IL,60626,(773) 262-3515,,,,,,,,,,,,,,,,,,,,http://www.howardarea.org/,Call,NA,TRUE,FALSE,TRUE
,Inspiration Corporation,WorkForce Center,"4554 N. Broadway, Suite 207",,Chicago,IL,60640,(773) 878-0981,,,,,,,,,,,,,,,,,,,,http://www.inspirationcorp.org/,Call,NA,TRUE,FALSE,TRUE
,Polish American Association,WorkForce Center,3815-3819 N. Cicero,,Chicago,IL,60641,(773) 282-1122,,,,,,,,,,,,,,,,,,,,http://www.polish.org/,"TU, TH: 9AM-2PM and 3PM-5:45PM; W, F: 1PM-2PM; 3PM-6:45PM; SA: 9AM-2PM and 3PM-4:45PM; SU-M: Closed",NA,TRUE,FALSE,TRUE
,Polish American Association,WorkForce Center,6276 W. Archer,,Chicago,IL,60638,(773) 767-7773,,,,,,,,,,,,,,,,,,,,http://www.polish.org/,"TU-TH 1PM-8:45PM; SA: 10AM-5:45PM; M, F, SU: Closed",NA,TRUE,FALSE,TRUE
,Safer Foundation,WorkForce Center,571 W. Jackson,,Chicago,IL,60661,(312) 922-2200,,,,,,,,,,,,,,,,,,,,http://www.saferfoundation.org/viewpage.asp?id=4,Call,NA,TRUE,FALSE,TRUE
,Ser Services Inc.,WorkForce Center,"3948 W. 26th St., Suite 213",,Chicago,IL,60623,(773) 542-9030 x. 250,,,,,,,,,,,,,,,,,,,,http://www.centralstatesser.org/,Call,NA,TRUE,FALSE,TRUE
,YMCA of Metropolitan Chicago,WorkForce Center,11 E. Adams,,Chicago,IL,60603,(312) 913-2150,,,,,,,,,,,,,,,,,,,,http://www.ymcachgo.org/,Call,NA,TRUE,FALSE,TRUE
,YCDC Association House,Youth Center,1116 N. Kedzie Ave.,,Chicago,IL,60651,(773) 772-7170,,,,,,,,,,,,,,,,,,,,http://www.associationhouse.org,Call for hours,No,TRUE,FALSE,TRUE
,YCDC Boys and Girls Club,Youth Center,2950 W. Washington Blvd.,,Chicago,IL,60612,(773) 376-6847 x. 4717 or (773) 638-5464 x. 4813,,,,,,,,,,,,,,,,,,,,http://www.bgcc.org/,Call for hours,No,TRUE,FALSE,TRUE
,YCDC Center on Halsted,Youth Center,3656 N. Halsted,,Chicago,IL,60613,(773) 472-6469,,,,,,,,,,,,,,,,,,,,http://www.centeronhalsted.org/,Call for hours,No,TRUE,FALSE,TRUE
,YCDC Central States SER,Youth Center,3948 W. 26th St.,,Chicago,IL,60623,(773) 542-9030 x. 257,,,,,,,,,,,,,,,,,,,,http://www.centralstatesser.org/,Call for hours,No,TRUE,FALSE,TRUE
,YCDC Community Assistance Programs,Youth Center,11444 S. Halsted St.,,Chicago,IL,60628,(773) 568-1782 or (773) 468-1993,,,,,,,,,,,,,,,,,,,,http://www.capsinc.org/,Call for hours,No,TRUE,FALSE,TRUE
,YCDC The Beloved Community St. Sabina,Youth Center,7909 S. Racine Ave.,,Chicago,IL,60620,(773) 783-3760,,,,,,,,,,,,,,,,,,,,http://www.belovedcommunitychicago.org/,Call for hours,No,TRUE,FALSE,TRUE
